Status,Neutral,Warehouse,Guid,Code,Type,Area,SubNode,name,Latitude,Longitude,Level,X,Y
active,1,null,null,null,path,null,['null'],node00,0,0,2,null,null
active,1,null,null,null,bin,null,['null'],node01,1,0,2,null,null
active,1,null,null,null,bin,null,['null'],node02,2,0,2,null,null
active,1,null,null,null,bin,null,['null'],node03,3,0,2,null,null
active,1,null,null,null,bin,null,['null'],node04,4,0,2,null,null
active,1,null,null,null,bin,null,['null'],node05,5,0,2,null,null
active,1,null,null,null,bin,null,['null'],node06,6,0,2,null,null
active,1,null,null,null,bin,null,['null'],node07,7,0,2,null,null
active,1,null,null,null,bin,null,['null'],node08,8,0,2,null,null
active,1,null,null,null,bin,null,['null'],node09,9,0,2,null,null
active,1,null,null,null,bin,null,['null'],node10,10,0,2,null,null
active,1,null,null,null,bin,null,['null'],node11,11,0,2,null,null
active,1,null,null,null,bin,null,['null'],node12,12,0,2,null,null
active,1,null,null,null,bin,null,['null'],node13,13,0,2,null,null
active,1,null,null,null,bin,null,['null'],node14,14,0,2,null,null
active,1,null,null,null,bin,null,['null'],node15,15,0,2,null,null
active,1,null,null,null,bin,null,['null'],node16,16,0,2,null,null
active,1,null,null,null,bin,null,['null'],node17,17,0,2,null,null
active,1,null,null,null,bin,null,['null'],node18,18,0,2,null,null
active,1,null,null,null,bin,null,['null'],node19,19,0,2,null,null
active,1,null,null,null,bin,null,['null'],node20,20,0,2,null,null
active,1,null,null,null,bin,null,['null'],node21,21,0,2,null,null
active,1,null,null,null,bin,null,['null'],node22,22,0,2,null,null
active,1,null,null,null,bin,null,['null'],node23,23,0,2,null,null
active,1,null,null,null,bin,null,['null'],node24,24,0,2,null,null
active,1,null,null,null,bin,null,['null'],node25,25,0,2,null,null
active,1,null,null,null,bin,null,['null'],node26,26,0,2,null,null
active,1,null,null,null,bin,null,['null'],node27,27,0,2,null,null
active,1,null,null,null,bin,null,['null'],node28,28,0,2,null,null
active,1,null,null,null,bin,null,['null'],node29,29,0,2,null,null
active,1,null,null,null,empty,null,['null'],node30,30,0,2,null,null
active,1,null,null,null,stairs,null,['null'],node31,31,0,2,null,null
active,1,null,null,null,stairs,null,['null'],node32,32,0,2,null,null
active,1,null,null,null,path,null,['null'],node33,0,1,2,null,null
active,1,null,null,null,path,null,['null'],node34,1,1,2,null,null
active,1,null,null,null,path,null,['null'],node35,2,1,2,null,null
active,1,null,null,null,path,null,['null'],node36,3,1,2,null,null
active,1,null,null,null,path,null,['null'],node37,4,1,2,null,null
active,1,null,null,null,path,null,['null'],node38,5,1,2,null,null
active,1,null,null,null,path,null,['null'],node39,6,1,2,null,null
active,1,null,null,null,path,null,['null'],node40,7,1,2,null,null
active,1,null,null,null,path,null,['null'],node41,8,1,2,null,null
active,1,null,null,null,path,null,['null'],node42,9,1,2,null,null
active,1,null,null,null,path,null,['null'],node43,10,1,2,null,null
active,1,null,null,null,path,null,['null'],node44,11,1,2,null,null
active,1,null,null,null,path,null,['null'],node45,12,1,2,null,null
active,1,null,null,null,path,null,['null'],node46,13,1,2,null,null
active,1,null,null,null,path,null,['null'],node47,14,1,2,null,null
active,1,null,null,null,path,null,['null'],node48,15,1,2,null,null
active,1,null,null,null,path,null,['null'],node49,16,1,2,null,null
active,1,null,null,null,path,null,['null'],node50,17,1,2,null,null
active,1,null,null,null,path,null,['null'],node51,18,1,2,null,null
active,1,null,null,null,path,null,['null'],node52,19,1,2,null,null
active,1,null,null,null,path,null,['null'],node53,20,1,2,null,null
active,1,null,null,null,path,null,['null'],node54,21,1,2,null,null
active,1,null,null,null,path,null,['null'],node55,22,1,2,null,null
active,1,null,null,null,path,null,['null'],node56,23,1,2,null,null
active,1,null,null,null,path,null,['null'],node57,24,1,2,null,null
active,1,null,null,null,path,null,['null'],node58,25,1,2,null,null
active,1,null,null,null,path,null,['null'],node59,26,1,2,null,null
active,1,null,null,null,path,null,['null'],node60,27,1,2,null,null
active,1,null,null,null,path,null,['null'],node61,28,1,2,null,null
active,1,null,null,null,path,null,['null'],node62,29,1,2,null,null
active,1,null,null,null,path,null,['null'],node63,30,1,2,null,null
active,1,null,null,null,path,null,['null'],node64,31,1,2,null,null
active,1,null,null,null,path,null,['null'],node65,32,1,2,null,null
active,1,null,null,null,path,null,['null'],node66,0,2,2,null,null
active,1,null,null,null,bin,null,['null'],node67,1,2,2,null,null
active,1,null,null,null,bin,null,['null'],node68,2,2,2,null,null
active,1,null,null,null,bin,null,['null'],node69,3,2,2,null,null
active,1,null,null,null,bin,null,['null'],node70,4,2,2,null,null
active,1,null,null,null,bin,null,['null'],node71,5,2,2,null,null
active,1,null,null,null,bin,null,['null'],node72,6,2,2,null,null
active,1,null,null,null,bin,null,['null'],node73,7,2,2,null,null
active,1,null,null,null,bin,null,['null'],node74,8,2,2,null,null
active,1,null,null,null,bin,null,['null'],node75,9,2,2,null,null
active,1,null,null,null,bin,null,['null'],node76,10,2,2,null,null
active,1,null,null,null,bin,null,['null'],node77,11,2,2,null,null
active,1,null,null,null,bin,null,['null'],node78,12,2,2,null,null
active,1,null,null,null,bin,null,['null'],node79,13,2,2,null,null
active,1,null,null,null,bin,null,['null'],node80,14,2,2,null,null
active,1,null,null,null,bin,null,['null'],node81,15,2,2,null,null
active,1,null,null,null,bin,null,['null'],node82,16,2,2,null,null
active,1,null,null,null,path,null,['null'],node83,17,2,2,null,null
active,1,null,null,null,bin,null,['null'],node84,18,2,2,null,null
active,1,null,null,null,bin,null,['null'],node85,19,2,2,null,null
active,1,null,null,null,bin,null,['null'],node86,20,2,2,null,null
active,1,null,null,null,bin,null,['null'],node87,21,2,2,null,null
active,1,null,null,null,bin,null,['null'],node88,22,2,2,null,null
active,1,null,null,null,bin,null,['null'],node89,23,2,2,null,null
active,1,null,null,null,bin,null,['null'],node90,24,2,2,null,null
active,1,null,null,null,bin,null,['null'],node91,25,2,2,null,null
active,1,null,null,null,bin,null,['null'],node92,26,2,2,null,null
active,1,null,null,null,bin,null,['null'],node93,27,2,2,null,null
active,1,null,null,null,bin,null,['null'],node94,28,2,2,null,null
active,1,null,null,null,bin,null,['null'],node95,29,2,2,null,null
active,1,null,null,null,bin,null,['null'],node96,30,2,2,null,null
active,1,null,null,null,bin,null,['null'],node97,31,2,2,null,null
active,1,null,null,null,path,null,['null'],node98,32,2,2,null,null
active,1,null,null,null,path,null,['null'],node99,0,3,2,null,null
active,1,null,null,null,bin,null,['null'],node100,1,3,2,null,null
active,1,null,null,null,bin,null,['null'],node101,2,3,2,null,null
active,1,null,null,null,bin,null,['null'],node102,3,3,2,null,null
active,1,null,null,null,bin,null,['null'],node103,4,3,2,null,null
active,1,null,null,null,bin,null,['null'],node104,5,3,2,null,null
active,1,null,null,null,bin,null,['null'],node105,6,3,2,null,null
active,1,null,null,null,bin,null,['null'],node106,7,3,2,null,null
active,1,null,null,null,bin,null,['null'],node107,8,3,2,null,null
active,1,null,null,null,bin,null,['null'],node108,9,3,2,null,null
active,1,null,null,null,bin,null,['null'],node109,10,3,2,null,null
active,1,null,null,null,bin,null,['null'],node110,11,3,2,null,null
active,1,null,null,null,bin,null,['null'],node111,12,3,2,null,null
active,1,null,null,null,bin,null,['null'],node112,13,3,2,null,null
active,1,null,null,null,bin,null,['null'],node113,14,3,2,null,null
active,1,null,null,null,bin,null,['null'],node114,15,3,2,null,null
active,1,null,null,null,bin,null,['null'],node115,16,3,2,null,null
active,1,null,null,null,path,null,['null'],node116,17,3,2,null,null
active,1,null,null,null,bin,null,['null'],node117,18,3,2,null,null
active,1,null,null,null,bin,null,['null'],node118,19,3,2,null,null
active,1,null,null,null,bin,null,['null'],node119,20,3,2,null,null
active,1,null,null,null,bin,null,['null'],node120,21,3,2,null,null
active,1,null,null,null,bin,null,['null'],node121,22,3,2,null,null
active,1,null,null,null,bin,null,['null'],node122,23,3,2,null,null
active,1,null,null,null,bin,null,['null'],node123,24,3,2,null,null
active,1,null,null,null,bin,null,['null'],node124,25,3,2,null,null
active,1,null,null,null,bin,null,['null'],node125,26,3,2,null,null
active,1,null,null,null,bin,null,['null'],node126,27,3,2,null,null
active,1,null,null,null,bin,null,['null'],node127,28,3,2,null,null
active,1,null,null,null,bin,null,['null'],node128,29,3,2,null,null
active,1,null,null,null,bin,null,['null'],node129,30,3,2,null,null
active,1,null,null,null,bin,null,['null'],node130,31,3,2,null,null
active,1,null,null,null,path,null,['null'],node131,32,3,2,null,null
active,1,null,null,null,path,null,['null'],node132,0,4,2,null,null
active,1,null,null,null,path,null,['null'],node133,1,4,2,null,null
active,1,null,null,null,path,null,['null'],node134,2,4,2,null,null
active,1,null,null,null,path,null,['null'],node135,3,4,2,null,null
active,1,null,null,null,path,null,['null'],node136,4,4,2,null,null
active,1,null,null,null,path,null,['null'],node137,5,4,2,null,null
active,1,null,null,null,path,null,['null'],node138,6,4,2,null,null
active,1,null,null,null,path,null,['null'],node139,7,4,2,null,null
active,1,null,null,null,path,null,['null'],node140,8,4,2,null,null
active,1,null,null,null,path,null,['null'],node141,9,4,2,null,null
active,1,null,null,null,path,null,['null'],node142,10,4,2,null,null
active,1,null,null,null,path,null,['null'],node143,11,4,2,null,null
active,1,null,null,null,path,null,['null'],node144,12,4,2,null,null
active,1,null,null,null,path,null,['null'],node145,13,4,2,null,null
active,1,null,null,null,path,null,['null'],node146,14,4,2,null,null
active,1,null,null,null,path,null,['null'],node147,15,4,2,null,null
active,1,null,null,null,path,null,['null'],node148,16,4,2,null,null
active,1,null,null,null,path,null,['null'],node149,17,4,2,null,null
active,1,null,null,null,path,null,['null'],node150,18,4,2,null,null
active,1,null,null,null,path,null,['null'],node151,19,4,2,null,null
active,1,null,null,null,path,null,['null'],node152,20,4,2,null,null
active,1,null,null,null,path,null,['null'],node153,21,4,2,null,null
active,1,null,null,null,path,null,['null'],node154,22,4,2,null,null
active,1,null,null,null,path,null,['null'],node155,23,4,2,null,null
active,1,null,null,null,path,null,['null'],node156,24,4,2,null,null
active,1,null,null,null,path,null,['null'],node157,25,4,2,null,null
active,1,null,null,null,path,null,['null'],node158,26,4,2,null,null
active,1,null,null,null,path,null,['null'],node159,27,4,2,null,null
active,1,null,null,null,path,null,['null'],node160,28,4,2,null,null
active,1,null,null,null,path,null,['null'],node161,29,4,2,null,null
active,1,null,null,null,path,null,['null'],node162,30,4,2,null,null
active,1,null,null,null,path,null,['null'],node163,31,4,2,null,null
active,1,null,null,null,path,null,['null'],node164,32,4,2,null,null
active,1,null,null,null,path,null,['null'],node165,0,5,2,null,null
active,1,null,null,null,bin,null,['null'],node166,1,5,2,null,null
active,1,null,null,null,bin,null,['null'],node167,2,5,2,null,null
active,1,null,null,null,bin,null,['null'],node168,3,5,2,null,null
active,1,null,null,null,bin,null,['null'],node169,4,5,2,null,null
active,1,null,null,null,bin,null,['null'],node170,5,5,2,null,null
active,1,null,null,null,bin,null,['null'],node171,6,5,2,null,null
active,1,null,null,null,bin,null,['null'],node172,7,5,2,null,null
active,1,null,null,null,bin,null,['null'],node173,8,5,2,null,null
active,1,null,null,null,bin,null,['null'],node174,9,5,2,null,null
active,1,null,null,null,bin,null,['null'],node175,10,5,2,null,null
active,1,null,null,null,bin,null,['null'],node176,11,5,2,null,null
active,1,null,null,null,bin,null,['null'],node177,12,5,2,null,null
active,1,null,null,null,bin,null,['null'],node178,13,5,2,null,null
active,1,null,null,null,bin,null,['null'],node179,14,5,2,null,null
active,1,null,null,null,bin,null,['null'],node180,15,5,2,null,null
active,1,null,null,null,bin,null,['null'],node181,16,5,2,null,null
active,1,null,null,null,path,null,['null'],node182,17,5,2,null,null
active,1,null,null,null,bin,null,['null'],node183,18,5,2,null,null
active,1,null,null,null,bin,null,['null'],node184,19,5,2,null,null
active,1,null,null,null,bin,null,['null'],node185,20,5,2,null,null
active,1,null,null,null,bin,null,['null'],node186,21,5,2,null,null
active,1,null,null,null,bin,null,['null'],node187,22,5,2,null,null
active,1,null,null,null,bin,null,['null'],node188,23,5,2,null,null
active,1,null,null,null,bin,null,['null'],node189,24,5,2,null,null
active,1,null,null,null,bin,null,['null'],node190,25,5,2,null,null
active,1,null,null,null,bin,null,['null'],node191,26,5,2,null,null
active,1,null,null,null,bin,null,['null'],node192,27,5,2,null,null
active,1,null,null,null,bin,null,['null'],node193,28,5,2,null,null
active,1,null,null,null,bin,null,['null'],node194,29,5,2,null,null
active,1,null,null,null,bin,null,['null'],node195,30,5,2,null,null
active,1,null,null,null,bin,null,['null'],node196,31,5,2,null,null
active,1,null,null,null,path,null,['null'],node197,32,5,2,null,null
active,1,null,null,null,path,null,['null'],node198,0,6,2,null,null
active,1,null,null,null,bin,null,['null'],node199,1,6,2,null,null
active,1,null,null,null,bin,null,['null'],node200,2,6,2,null,null
active,1,null,null,null,bin,null,['null'],node201,3,6,2,null,null
active,1,null,null,null,bin,null,['null'],node202,4,6,2,null,null
active,1,null,null,null,bin,null,['null'],node203,5,6,2,null,null
active,1,null,null,null,bin,null,['null'],node204,6,6,2,null,null
active,1,null,null,null,bin,null,['null'],node205,7,6,2,null,null
active,1,null,null,null,bin,null,['null'],node206,8,6,2,null,null
active,1,null,null,null,bin,null,['null'],node207,9,6,2,null,null
active,1,null,null,null,bin,null,['null'],node208,10,6,2,null,null
active,1,null,null,null,bin,null,['null'],node209,11,6,2,null,null
active,1,null,null,null,bin,null,['null'],node210,12,6,2,null,null
active,1,null,null,null,bin,null,['null'],node211,13,6,2,null,null
active,1,null,null,null,bin,null,['null'],node212,14,6,2,null,null
active,1,null,null,null,bin,null,['null'],node213,15,6,2,null,null
active,1,null,null,null,bin,null,['null'],node214,16,6,2,null,null
active,1,null,null,null,path,null,['null'],node215,17,6,2,null,null
active,1,null,null,null,bin,null,['null'],node216,18,6,2,null,null
active,1,null,null,null,bin,null,['null'],node217,19,6,2,null,null
active,1,null,null,null,bin,null,['null'],node218,20,6,2,null,null
active,1,null,null,null,bin,null,['null'],node219,21,6,2,null,null
active,1,null,null,null,bin,null,['null'],node220,22,6,2,null,null
active,1,null,null,null,bin,null,['null'],node221,23,6,2,null,null
active,1,null,null,null,bin,null,['null'],node222,24,6,2,null,null
active,1,null,null,null,bin,null,['null'],node223,25,6,2,null,null
active,1,null,null,null,bin,null,['null'],node224,26,6,2,null,null
active,1,null,null,null,bin,null,['null'],node225,27,6,2,null,null
active,1,null,null,null,bin,null,['null'],node226,28,6,2,null,null
active,1,null,null,null,bin,null,['null'],node227,29,6,2,null,null
active,1,null,null,null,bin,null,['null'],node228,30,6,2,null,null
active,1,null,null,null,bin,null,['null'],node229,31,6,2,null,null
active,1,null,null,null,path,null,['null'],node230,32,6,2,null,null
active,1,null,null,null,path,null,['null'],node231,0,7,2,null,null
active,1,null,null,null,path,null,['null'],node232,1,7,2,null,null
active,1,null,null,null,path,null,['null'],node233,2,7,2,null,null
active,1,null,null,null,path,null,['null'],node234,3,7,2,null,null
active,1,null,null,null,path,null,['null'],node235,4,7,2,null,null
active,1,null,null,null,path,null,['null'],node236,5,7,2,null,null
active,1,null,null,null,path,null,['null'],node237,6,7,2,null,null
active,1,null,null,null,path,null,['null'],node238,7,7,2,null,null
active,1,null,null,null,path,null,['null'],node239,8,7,2,null,null
active,1,null,null,null,path,null,['null'],node240,9,7,2,null,null
active,1,null,null,null,path,null,['null'],node241,10,7,2,null,null
active,1,null,null,null,path,null,['null'],node242,11,7,2,null,null
active,1,null,null,null,path,null,['null'],node243,12,7,2,null,null
active,1,null,null,null,path,null,['null'],node244,13,7,2,null,null
active,1,null,null,null,path,null,['null'],node245,14,7,2,null,null
active,1,null,null,null,path,null,['null'],node246,15,7,2,null,null
active,1,null,null,null,path,null,['null'],node247,16,7,2,null,null
active,1,null,null,null,path,null,['null'],node248,17,7,2,null,null
active,1,null,null,null,path,null,['null'],node249,18,7,2,null,null
active,1,null,null,null,path,null,['null'],node250,19,7,2,null,null
active,1,null,null,null,path,null,['null'],node251,20,7,2,null,null
active,1,null,null,null,path,null,['null'],node252,21,7,2,null,null
active,1,null,null,null,path,null,['null'],node253,22,7,2,null,null
active,1,null,null,null,path,null,['null'],node254,23,7,2,null,null
active,1,null,null,null,path,null,['null'],node255,24,7,2,null,null
active,1,null,null,null,path,null,['null'],node256,25,7,2,null,null
active,1,null,null,null,path,null,['null'],node257,26,7,2,null,null
active,1,null,null,null,path,null,['null'],node258,27,7,2,null,null
active,1,null,null,null,path,null,['null'],node259,28,7,2,null,null
active,1,null,null,null,path,null,['null'],node260,29,7,2,null,null
active,1,null,null,null,path,null,['null'],node261,30,7,2,null,null
active,1,null,null,null,path,null,['null'],node262,31,7,2,null,null
active,1,null,null,null,path,null,['null'],node263,32,7,2,null,null
active,1,null,null,null,path,null,['null'],node264,0,8,2,null,null
active,1,null,null,null,bin,null,['null'],node265,1,8,2,null,null
active,1,null,null,null,bin,null,['null'],node266,2,8,2,null,null
active,1,null,null,null,bin,null,['null'],node267,3,8,2,null,null
active,1,null,null,null,bin,null,['null'],node268,4,8,2,null,null
active,1,null,null,null,bin,null,['null'],node269,5,8,2,null,null
active,1,null,null,null,bin,null,['null'],node270,6,8,2,null,null
active,1,null,null,null,bin,null,['null'],node271,7,8,2,null,null
active,1,null,null,null,bin,null,['null'],node272,8,8,2,null,null
active,1,null,null,null,bin,null,['null'],node273,9,8,2,null,null
active,1,null,null,null,bin,null,['null'],node274,10,8,2,null,null
active,1,null,null,null,bin,null,['null'],node275,11,8,2,null,null
active,1,null,null,null,bin,null,['null'],node276,12,8,2,null,null
active,1,null,null,null,bin,null,['null'],node277,13,8,2,null,null
active,1,null,null,null,bin,null,['null'],node278,14,8,2,null,null
active,1,null,null,null,bin,null,['null'],node279,15,8,2,null,null
active,1,null,null,null,bin,null,['null'],node280,16,8,2,null,null
active,1,null,null,null,path,null,['null'],node281,17,8,2,null,null
active,1,null,null,null,bin,null,['null'],node282,18,8,2,null,null
active,1,null,null,null,bin,null,['null'],node283,19,8,2,null,null
active,1,null,null,null,bin,null,['null'],node284,20,8,2,null,null
active,1,null,null,null,bin,null,['null'],node285,21,8,2,null,null
active,1,null,null,null,bin,null,['null'],node286,22,8,2,null,null
active,1,null,null,null,bin,null,['null'],node287,23,8,2,null,null
active,1,null,null,null,bin,null,['null'],node288,24,8,2,null,null
active,1,null,null,null,bin,null,['null'],node289,25,8,2,null,null
active,1,null,null,null,bin,null,['null'],node290,26,8,2,null,null
active,1,null,null,null,bin,null,['null'],node291,27,8,2,null,null
active,1,null,null,null,bin,null,['null'],node292,28,8,2,null,null
active,1,null,null,null,bin,null,['null'],node293,29,8,2,null,null
active,1,null,null,null,bin,null,['null'],node294,30,8,2,null,null
active,1,null,null,null,bin,null,['null'],node295,31,8,2,null,null
active,1,null,null,null,path,null,['null'],node296,32,8,2,null,null
active,1,null,null,null,path,null,['null'],node297,0,9,2,null,null
active,1,null,null,null,bin,null,['null'],node298,1,9,2,null,null
active,1,null,null,null,bin,null,['null'],node299,2,9,2,null,null
active,1,null,null,null,bin,null,['null'],node300,3,9,2,null,null
active,1,null,null,null,bin,null,['null'],node301,4,9,2,null,null
active,1,null,null,null,bin,null,['null'],node302,5,9,2,null,null
active,1,null,null,null,bin,null,['null'],node303,6,9,2,null,null
active,1,null,null,null,bin,null,['null'],node304,7,9,2,null,null
active,1,null,null,null,bin,null,['null'],node305,8,9,2,null,null
active,1,null,null,null,bin,null,['null'],node306,9,9,2,null,null
active,1,null,null,null,bin,null,['null'],node307,10,9,2,null,null
active,1,null,null,null,bin,null,['null'],node308,11,9,2,null,null
active,1,null,null,null,bin,null,['null'],node309,12,9,2,null,null
active,1,null,null,null,bin,null,['null'],node310,13,9,2,null,null
active,1,null,null,null,bin,null,['null'],node311,14,9,2,null,null
active,1,null,null,null,bin,null,['null'],node312,15,9,2,null,null
active,1,null,null,null,bin,null,['null'],node313,16,9,2,null,null
active,1,null,null,null,path,null,['null'],node314,17,9,2,null,null
active,1,null,null,null,bin,null,['null'],node315,18,9,2,null,null
active,1,null,null,null,bin,null,['null'],node316,19,9,2,null,null
active,1,null,null,null,bin,null,['null'],node317,20,9,2,null,null
active,1,null,null,null,bin,null,['null'],node318,21,9,2,null,null
active,1,null,null,null,bin,null,['null'],node319,22,9,2,null,null
active,1,null,null,null,bin,null,['null'],node320,23,9,2,null,null
active,1,null,null,null,bin,null,['null'],node321,24,9,2,null,null
active,1,null,null,null,bin,null,['null'],node322,25,9,2,null,null
active,1,null,null,null,bin,null,['null'],node323,26,9,2,null,null
active,1,null,null,null,bin,null,['null'],node324,27,9,2,null,null
active,1,null,null,null,bin,null,['null'],node325,28,9,2,null,null
active,1,null,null,null,bin,null,['null'],node326,29,9,2,null,null
active,1,null,null,null,bin,null,['null'],node327,30,9,2,null,null
active,1,null,null,null,bin,null,['null'],node328,31,9,2,null,null
active,1,null,null,null,path,null,['null'],node329,32,9,2,null,null
active,1,null,null,null,path,null,['null'],node330,0,10,2,null,null
active,1,null,null,null,path,null,['null'],node331,1,10,2,null,null
active,1,null,null,null,path,null,['null'],node332,2,10,2,null,null
active,1,null,null,null,path,null,['null'],node333,3,10,2,null,null
active,1,null,null,null,path,null,['null'],node334,4,10,2,null,null
active,1,null,null,null,path,null,['null'],node335,5,10,2,null,null
active,1,null,null,null,path,null,['null'],node336,6,10,2,null,null
active,1,null,null,null,path,null,['null'],node337,7,10,2,null,null
active,1,null,null,null,path,null,['null'],node338,8,10,2,null,null
active,1,null,null,null,path,null,['null'],node339,9,10,2,null,null
active,1,null,null,null,path,null,['null'],node340,10,10,2,null,null
active,1,null,null,null,path,null,['null'],node341,11,10,2,null,null
active,1,null,null,null,path,null,['null'],node342,12,10,2,null,null
active,1,null,null,null,path,null,['null'],node343,13,10,2,null,null
active,1,null,null,null,path,null,['null'],node344,14,10,2,null,null
active,1,null,null,null,path,null,['null'],node345,15,10,2,null,null
active,1,null,null,null,path,null,['null'],node346,16,10,2,null,null
active,1,null,null,null,path,null,['null'],node347,17,10,2,null,null
active,1,null,null,null,path,null,['null'],node348,18,10,2,null,null
active,1,null,null,null,path,null,['null'],node349,19,10,2,null,null
active,1,null,null,null,path,null,['null'],node350,20,10,2,null,null
active,1,null,null,null,path,null,['null'],node351,21,10,2,null,null
active,1,null,null,null,path,null,['null'],node352,22,10,2,null,null
active,1,null,null,null,path,null,['null'],node353,23,10,2,null,null
active,1,null,null,null,path,null,['null'],node354,24,10,2,null,null
active,1,null,null,null,path,null,['null'],node355,25,10,2,null,null
active,1,null,null,null,path,null,['null'],node356,26,10,2,null,null
active,1,null,null,null,path,null,['null'],node357,27,10,2,null,null
active,1,null,null,null,path,null,['null'],node358,28,10,2,null,null
active,1,null,null,null,path,null,['null'],node359,29,10,2,null,null
active,1,null,null,null,path,null,['null'],node360,30,10,2,null,null
active,1,null,null,null,path,null,['null'],node361,31,10,2,null,null
active,1,null,null,null,path,null,['null'],node362,32,10,2,null,null
active,1,null,null,null,path,null,['null'],node363,0,11,2,null,null
active,1,null,null,null,bin,null,['null'],node364,1,11,2,null,null
active,1,null,null,null,bin,null,['null'],node365,2,11,2,null,null
active,1,null,null,null,bin,null,['null'],node366,3,11,2,null,null
active,1,null,null,null,bin,null,['null'],node367,4,11,2,null,null
active,1,null,null,null,bin,null,['null'],node368,5,11,2,null,null
active,1,null,null,null,bin,null,['null'],node369,6,11,2,null,null
active,1,null,null,null,bin,null,['null'],node370,7,11,2,null,null
active,1,null,null,null,bin,null,['null'],node371,8,11,2,null,null
active,1,null,null,null,bin,null,['null'],node372,9,11,2,null,null
active,1,null,null,null,bin,null,['null'],node373,10,11,2,null,null
active,1,null,null,null,bin,null,['null'],node374,11,11,2,null,null
active,1,null,null,null,bin,null,['null'],node375,12,11,2,null,null
active,1,null,null,null,bin,null,['null'],node376,13,11,2,null,null
active,1,null,null,null,bin,null,['null'],node377,14,11,2,null,null
active,1,null,null,null,bin,null,['null'],node378,15,11,2,null,null
active,1,null,null,null,bin,null,['null'],node379,16,11,2,null,null
active,1,null,null,null,path,null,['null'],node380,17,11,2,null,null
active,1,null,null,null,bin,null,['null'],node381,18,11,2,null,null
active,1,null,null,null,bin,null,['null'],node382,19,11,2,null,null
active,1,null,null,null,bin,null,['null'],node383,20,11,2,null,null
active,1,null,null,null,bin,null,['null'],node384,21,11,2,null,null
active,1,null,null,null,bin,null,['null'],node385,22,11,2,null,null
active,1,null,null,null,bin,null,['null'],node386,23,11,2,null,null
active,1,null,null,null,bin,null,['null'],node387,24,11,2,null,null
active,1,null,null,null,bin,null,['null'],node388,25,11,2,null,null
active,1,null,null,null,bin,null,['null'],node389,26,11,2,null,null
active,1,null,null,null,bin,null,['null'],node390,27,11,2,null,null
active,1,null,null,null,bin,null,['null'],node391,28,11,2,null,null
active,1,null,null,null,bin,null,['null'],node392,29,11,2,null,null
active,1,null,null,null,bin,null,['null'],node393,30,11,2,null,null
active,1,null,null,null,bin,null,['null'],node394,31,11,2,null,null
active,1,null,null,null,path,null,['null'],node395,32,11,2,null,null
active,1,null,null,null,path,null,['null'],node396,0,12,2,null,null
active,1,null,null,null,bin,null,['null'],node397,1,12,2,null,null
active,1,null,null,null,bin,null,['null'],node398,2,12,2,null,null
active,1,null,null,null,bin,null,['null'],node399,3,12,2,null,null
active,1,null,null,null,bin,null,['null'],node400,4,12,2,null,null
active,1,null,null,null,bin,null,['null'],node401,5,12,2,null,null
active,1,null,null,null,bin,null,['null'],node402,6,12,2,null,null
active,1,null,null,null,bin,null,['null'],node403,7,12,2,null,null
active,1,null,null,null,bin,null,['null'],node404,8,12,2,null,null
active,1,null,null,null,bin,null,['null'],node405,9,12,2,null,null
active,1,null,null,null,bin,null,['null'],node406,10,12,2,null,null
active,1,null,null,null,bin,null,['null'],node407,11,12,2,null,null
active,1,null,null,null,bin,null,['null'],node408,12,12,2,null,null
active,1,null,null,null,bin,null,['null'],node409,13,12,2,null,null
active,1,null,null,null,bin,null,['null'],node410,14,12,2,null,null
active,1,null,null,null,bin,null,['null'],node411,15,12,2,null,null
active,1,null,null,null,bin,null,['null'],node412,16,12,2,null,null
active,1,null,null,null,path,null,['null'],node413,17,12,2,null,null
active,1,null,null,null,bin,null,['null'],node414,18,12,2,null,null
active,1,null,null,null,bin,null,['null'],node415,19,12,2,null,null
active,1,null,null,null,bin,null,['null'],node416,20,12,2,null,null
active,1,null,null,null,bin,null,['null'],node417,21,12,2,null,null
active,1,null,null,null,bin,null,['null'],node418,22,12,2,null,null
active,1,null,null,null,bin,null,['null'],node419,23,12,2,null,null
active,1,null,null,null,bin,null,['null'],node420,24,12,2,null,null
active,1,null,null,null,bin,null,['null'],node421,25,12,2,null,null
active,1,null,null,null,bin,null,['null'],node422,26,12,2,null,null
active,1,null,null,null,bin,null,['null'],node423,27,12,2,null,null
active,1,null,null,null,bin,null,['null'],node424,28,12,2,null,null
active,1,null,null,null,bin,null,['null'],node425,29,12,2,null,null
active,1,null,null,null,bin,null,['null'],node426,30,12,2,null,null
active,1,null,null,null,bin,null,['null'],node427,31,12,2,null,null
active,1,null,null,null,path,null,['null'],node428,32,12,2,null,null
active,1,null,null,null,path,null,['null'],node429,0,13,2,null,null
active,1,null,null,null,path,null,['null'],node430,1,13,2,null,null
active,1,null,null,null,path,null,['null'],node431,2,13,2,null,null
active,1,null,null,null,path,null,['null'],node432,3,13,2,null,null
active,1,null,null,null,path,null,['null'],node433,4,13,2,null,null
active,1,null,null,null,path,null,['null'],node434,5,13,2,null,null
active,1,null,null,null,path,null,['null'],node435,6,13,2,null,null
active,1,null,null,null,path,null,['null'],node436,7,13,2,null,null
active,1,null,null,null,path,null,['null'],node437,8,13,2,null,null
active,1,null,null,null,path,null,['null'],node438,9,13,2,null,null
active,1,null,null,null,path,null,['null'],node439,10,13,2,null,null
active,1,null,null,null,path,null,['null'],node440,11,13,2,null,null
active,1,null,null,null,path,null,['null'],node441,12,13,2,null,null
active,1,null,null,null,path,null,['null'],node442,13,13,2,null,null
active,1,null,null,null,path,null,['null'],node443,14,13,2,null,null
active,1,null,null,null,path,null,['null'],node444,15,13,2,null,null
active,1,null,null,null,path,null,['null'],node445,16,13,2,null,null
active,1,null,null,null,path,null,['null'],node446,17,13,2,null,null
active,1,null,null,null,path,null,['null'],node447,18,13,2,null,null
active,1,null,null,null,path,null,['null'],node448,19,13,2,null,null
active,1,null,null,null,path,null,['null'],node449,20,13,2,null,null
active,1,null,null,null,path,null,['null'],node450,21,13,2,null,null
active,1,null,null,null,path,null,['null'],node451,22,13,2,null,null
active,1,null,null,null,path,null,['null'],node452,23,13,2,null,null
active,1,null,null,null,path,null,['null'],node453,24,13,2,null,null
active,1,null,null,null,path,null,['null'],node454,25,13,2,null,null
active,1,null,null,null,path,null,['null'],node455,26,13,2,null,null
active,1,null,null,null,path,null,['null'],node456,27,13,2,null,null
active,1,null,null,null,path,null,['null'],node457,28,13,2,null,null
active,1,null,null,null,path,null,['null'],node458,29,13,2,null,null
active,1,null,null,null,path,null,['null'],node459,30,13,2,null,null
active,1,null,null,null,path,null,['null'],node460,31,13,2,null,null
active,1,null,null,null,path,null,['null'],node461,32,13,2,null,null
active,1,null,null,null,path,null,['null'],node462,0,14,2,null,null
active,1,null,null,null,bin,null,['null'],node463,1,14,2,null,null
active,1,null,null,null,bin,null,['null'],node464,2,14,2,null,null
active,1,null,null,null,bin,null,['null'],node465,3,14,2,null,null
active,1,null,null,null,bin,null,['null'],node466,4,14,2,null,null
active,1,null,null,null,bin,null,['null'],node467,5,14,2,null,null
active,1,null,null,null,bin,null,['null'],node468,6,14,2,null,null
active,1,null,null,null,bin,null,['null'],node469,7,14,2,null,null
active,1,null,null,null,bin,null,['null'],node470,8,14,2,null,null
active,1,null,null,null,bin,null,['null'],node471,9,14,2,null,null
active,1,null,null,null,bin,null,['null'],node472,10,14,2,null,null
active,1,null,null,null,bin,null,['null'],node473,11,14,2,null,null
active,1,null,null,null,bin,null,['null'],node474,12,14,2,null,null
active,1,null,null,null,bin,null,['null'],node475,13,14,2,null,null
active,1,null,null,null,bin,null,['null'],node476,14,14,2,null,null
active,1,null,null,null,bin,null,['null'],node477,15,14,2,null,null
active,1,null,null,null,bin,null,['null'],node478,16,14,2,null,null
active,1,null,null,null,path,null,['null'],node479,17,14,2,null,null
active,1,null,null,null,bin,null,['null'],node480,18,14,2,null,null
active,1,null,null,null,bin,null,['null'],node481,19,14,2,null,null
active,1,null,null,null,bin,null,['null'],node482,20,14,2,null,null
active,1,null,null,null,bin,null,['null'],node483,21,14,2,null,null
active,1,null,null,null,bin,null,['null'],node484,22,14,2,null,null
active,1,null,null,null,bin,null,['null'],node485,23,14,2,null,null
active,1,null,null,null,bin,null,['null'],node486,24,14,2,null,null
active,1,null,null,null,bin,null,['null'],node487,25,14,2,null,null
active,1,null,null,null,bin,null,['null'],node488,26,14,2,null,null
active,1,null,null,null,bin,null,['null'],node489,27,14,2,null,null
active,1,null,null,null,bin,null,['null'],node490,28,14,2,null,null
active,1,null,null,null,bin,null,['null'],node491,29,14,2,null,null
active,1,null,null,null,bin,null,['null'],node492,30,14,2,null,null
active,1,null,null,null,bin,null,['null'],node493,31,14,2,null,null
active,1,null,null,null,path,null,['null'],node494,32,14,2,null,null
active,1,null,null,null,path,null,['null'],node495,0,15,2,null,null
active,1,null,null,null,bin,null,['null'],node496,1,15,2,null,null
active,1,null,null,null,bin,null,['null'],node497,2,15,2,null,null
active,1,null,null,null,bin,null,['null'],node498,3,15,2,null,null
active,1,null,null,null,bin,null,['null'],node499,4,15,2,null,null
active,1,null,null,null,bin,null,['null'],node500,5,15,2,null,null
active,1,null,null,null,bin,null,['null'],node501,6,15,2,null,null
active,1,null,null,null,bin,null,['null'],node502,7,15,2,null,null
active,1,null,null,null,bin,null,['null'],node503,8,15,2,null,null
active,1,null,null,null,bin,null,['null'],node504,9,15,2,null,null
active,1,null,null,null,bin,null,['null'],node505,10,15,2,null,null
active,1,null,null,null,bin,null,['null'],node506,11,15,2,null,null
active,1,null,null,null,bin,null,['null'],node507,12,15,2,null,null
active,1,null,null,null,bin,null,['null'],node508,13,15,2,null,null
active,1,null,null,null,bin,null,['null'],node509,14,15,2,null,null
active,1,null,null,null,bin,null,['null'],node510,15,15,2,null,null
active,1,null,null,null,bin,null,['null'],node511,16,15,2,null,null
active,1,null,null,null,path,null,['null'],node512,17,15,2,null,null
active,1,null,null,null,bin,null,['null'],node513,18,15,2,null,null
active,1,null,null,null,bin,null,['null'],node514,19,15,2,null,null
active,1,null,null,null,bin,null,['null'],node515,20,15,2,null,null
active,1,null,null,null,bin,null,['null'],node516,21,15,2,null,null
active,1,null,null,null,bin,null,['null'],node517,22,15,2,null,null
active,1,null,null,null,bin,null,['null'],node518,23,15,2,null,null
active,1,null,null,null,bin,null,['null'],node519,24,15,2,null,null
active,1,null,null,null,bin,null,['null'],node520,25,15,2,null,null
active,1,null,null,null,bin,null,['null'],node521,26,15,2,null,null
active,1,null,null,null,bin,null,['null'],node522,27,15,2,null,null
active,1,null,null,null,bin,null,['null'],node523,28,15,2,null,null
active,1,null,null,null,bin,null,['null'],node524,29,15,2,null,null
active,1,null,null,null,bin,null,['null'],node525,30,15,2,null,null
active,1,null,null,null,bin,null,['null'],node526,31,15,2,null,null
active,1,null,null,null,path,null,['null'],node527,32,15,2,null,null
active,1,null,null,null,path,null,['null'],node528,0,16,2,null,null
active,1,null,null,null,path,null,['null'],node529,1,16,2,null,null
active,1,null,null,null,path,null,['null'],node530,2,16,2,null,null
active,1,null,null,null,path,null,['null'],node531,3,16,2,null,null
active,1,null,null,null,path,null,['null'],node532,4,16,2,null,null
active,1,null,null,null,path,null,['null'],node533,5,16,2,null,null
active,1,null,null,null,path,null,['null'],node534,6,16,2,null,null
active,1,null,null,null,path,null,['null'],node535,7,16,2,null,null
active,1,null,null,null,path,null,['null'],node536,8,16,2,null,null
active,1,null,null,null,path,null,['null'],node537,9,16,2,null,null
active,1,null,null,null,path,null,['null'],node538,10,16,2,null,null
active,1,null,null,null,path,null,['null'],node539,11,16,2,null,null
active,1,null,null,null,path,null,['null'],node540,12,16,2,null,null
active,1,null,null,null,path,null,['null'],node541,13,16,2,null,null
active,1,null,null,null,path,null,['null'],node542,14,16,2,null,null
active,1,null,null,null,path,null,['null'],node543,15,16,2,null,null
active,1,null,null,null,path,null,['null'],node544,16,16,2,null,null
active,1,null,null,null,path,null,['null'],node545,17,16,2,null,null
active,1,null,null,null,path,null,['null'],node546,18,16,2,null,null
active,1,null,null,null,path,null,['null'],node547,19,16,2,null,null
active,1,null,null,null,path,null,['null'],node548,20,16,2,null,null
active,1,null,null,null,path,null,['null'],node549,21,16,2,null,null
active,1,null,null,null,path,null,['null'],node550,22,16,2,null,null
active,1,null,null,null,path,null,['null'],node551,23,16,2,null,null
active,1,null,null,null,path,null,['null'],node552,24,16,2,null,null
active,1,null,null,null,path,null,['null'],node553,25,16,2,null,null
active,1,null,null,null,path,null,['null'],node554,26,16,2,null,null
active,1,null,null,null,path,null,['null'],node555,27,16,2,null,null
active,1,null,null,null,path,null,['null'],node556,28,16,2,null,null
active,1,null,null,null,path,null,['null'],node557,29,16,2,null,null
active,1,null,null,null,path,null,['null'],node558,30,16,2,null,null
active,1,null,null,null,path,null,['null'],node559,31,16,2,null,null
active,1,null,null,null,path,null,['null'],node560,32,16,2,null,null
active,1,null,null,null,path,null,['null'],node561,0,17,2,null,null
active,1,null,null,null,bin,null,['null'],node562,1,17,2,null,null
active,1,null,null,null,bin,null,['null'],node563,2,17,2,null,null
active,1,null,null,null,bin,null,['null'],node564,3,17,2,null,null
active,1,null,null,null,bin,null,['null'],node565,4,17,2,null,null
active,1,null,null,null,bin,null,['null'],node566,5,17,2,null,null
active,1,null,null,null,bin,null,['null'],node567,6,17,2,null,null
active,1,null,null,null,bin,null,['null'],node568,7,17,2,null,null
active,1,null,null,null,bin,null,['null'],node569,8,17,2,null,null
active,1,null,null,null,bin,null,['null'],node570,9,17,2,null,null
active,1,null,null,null,bin,null,['null'],node571,10,17,2,null,null
active,1,null,null,null,bin,null,['null'],node572,11,17,2,null,null
active,1,null,null,null,bin,null,['null'],node573,12,17,2,null,null
active,1,null,null,null,bin,null,['null'],node574,13,17,2,null,null
active,1,null,null,null,bin,null,['null'],node575,14,17,2,null,null
active,1,null,null,null,bin,null,['null'],node576,15,17,2,null,null
active,1,null,null,null,bin,null,['null'],node577,16,17,2,null,null
active,1,null,null,null,path,null,['null'],node578,17,17,2,null,null
active,1,null,null,null,bin,null,['null'],node579,18,17,2,null,null
active,1,null,null,null,bin,null,['null'],node580,19,17,2,null,null
active,1,null,null,null,bin,null,['null'],node581,20,17,2,null,null
active,1,null,null,null,bin,null,['null'],node582,21,17,2,null,null
active,1,null,null,null,bin,null,['null'],node583,22,17,2,null,null
active,1,null,null,null,bin,null,['null'],node584,23,17,2,null,null
active,1,null,null,null,bin,null,['null'],node585,24,17,2,null,null
active,1,null,null,null,bin,null,['null'],node586,25,17,2,null,null
active,1,null,null,null,bin,null,['null'],node587,26,17,2,null,null
active,1,null,null,null,bin,null,['null'],node588,27,17,2,null,null
active,1,null,null,null,bin,null,['null'],node589,28,17,2,null,null
active,1,null,null,null,bin,null,['null'],node590,29,17,2,null,null
active,1,null,null,null,bin,null,['null'],node591,30,17,2,null,null
active,1,null,null,null,bin,null,['null'],node592,31,17,2,null,null
active,1,null,null,null,path,null,['null'],node593,32,17,2,null,null
active,1,null,null,null,path,null,['null'],node594,0,18,2,null,null
active,1,null,null,null,bin,null,['null'],node595,1,18,2,null,null
active,1,null,null,null,bin,null,['null'],node596,2,18,2,null,null
active,1,null,null,null,bin,null,['null'],node597,3,18,2,null,null
active,1,null,null,null,bin,null,['null'],node598,4,18,2,null,null
active,1,null,null,null,bin,null,['null'],node599,5,18,2,null,null
active,1,null,null,null,bin,null,['null'],node600,6,18,2,null,null
active,1,null,null,null,bin,null,['null'],node601,7,18,2,null,null
active,1,null,null,null,bin,null,['null'],node602,8,18,2,null,null
active,1,null,null,null,bin,null,['null'],node603,9,18,2,null,null
active,1,null,null,null,bin,null,['null'],node604,10,18,2,null,null
active,1,null,null,null,bin,null,['null'],node605,11,18,2,null,null
active,1,null,null,null,bin,null,['null'],node606,12,18,2,null,null
active,1,null,null,null,bin,null,['null'],node607,13,18,2,null,null
active,1,null,null,null,bin,null,['null'],node608,14,18,2,null,null
active,1,null,null,null,bin,null,['null'],node609,15,18,2,null,null
active,1,null,null,null,bin,null,['null'],node610,16,18,2,null,null
active,1,null,null,null,path,null,['null'],node611,17,18,2,null,null
active,1,null,null,null,bin,null,['null'],node612,18,18,2,null,null
active,1,null,null,null,bin,null,['null'],node613,19,18,2,null,null
active,1,null,null,null,bin,null,['null'],node614,20,18,2,null,null
active,1,null,null,null,bin,null,['null'],node615,21,18,2,null,null
active,1,null,null,null,bin,null,['null'],node616,22,18,2,null,null
active,1,null,null,null,bin,null,['null'],node617,23,18,2,null,null
active,1,null,null,null,bin,null,['null'],node618,24,18,2,null,null
active,1,null,null,null,bin,null,['null'],node619,25,18,2,null,null
active,1,null,null,null,bin,null,['null'],node620,26,18,2,null,null
active,1,null,null,null,bin,null,['null'],node621,27,18,2,null,null
active,1,null,null,null,bin,null,['null'],node622,28,18,2,null,null
active,1,null,null,null,bin,null,['null'],node623,29,18,2,null,null
active,1,null,null,null,bin,null,['null'],node624,30,18,2,null,null
active,1,null,null,null,bin,null,['null'],node625,31,18,2,null,null
active,1,null,null,null,path,null,['null'],node626,32,18,2,null,null
active,1,null,null,null,path,null,['null'],node627,0,19,2,null,null
active,1,null,null,null,path,null,['null'],node628,1,19,2,null,null
active,1,null,null,null,path,null,['null'],node629,2,19,2,null,null
active,1,null,null,null,path,null,['null'],node630,3,19,2,null,null
active,1,null,null,null,path,null,['null'],node631,4,19,2,null,null
active,1,null,null,null,path,null,['null'],node632,5,19,2,null,null
active,1,null,null,null,path,null,['null'],node633,6,19,2,null,null
active,1,null,null,null,path,null,['null'],node634,7,19,2,null,null
active,1,null,null,null,path,null,['null'],node635,8,19,2,null,null
active,1,null,null,null,path,null,['null'],node636,9,19,2,null,null
active,1,null,null,null,path,null,['null'],node637,10,19,2,null,null
active,1,null,null,null,path,null,['null'],node638,11,19,2,null,null
active,1,null,null,null,path,null,['null'],node639,12,19,2,null,null
active,1,null,null,null,path,null,['null'],node640,13,19,2,null,null
active,1,null,null,null,path,null,['null'],node641,14,19,2,null,null
active,1,null,null,null,path,null,['null'],node642,15,19,2,null,null
active,1,null,null,null,path,null,['null'],node643,16,19,2,null,null
active,1,null,null,null,path,null,['null'],node644,17,19,2,null,null
active,1,null,null,null,path,null,['null'],node645,18,19,2,null,null
active,1,null,null,null,path,null,['null'],node646,19,19,2,null,null
active,1,null,null,null,path,null,['null'],node647,20,19,2,null,null
active,1,null,null,null,path,null,['null'],node648,21,19,2,null,null
active,1,null,null,null,path,null,['null'],node649,22,19,2,null,null
active,1,null,null,null,path,null,['null'],node650,23,19,2,null,null
active,1,null,null,null,path,null,['null'],node651,24,19,2,null,null
active,1,null,null,null,path,null,['null'],node652,25,19,2,null,null
active,1,null,null,null,path,null,['null'],node653,26,19,2,null,null
active,1,null,null,null,path,null,['null'],node654,27,19,2,null,null
active,1,null,null,null,path,null,['null'],node655,28,19,2,null,null
active,1,null,null,null,path,null,['null'],node656,29,19,2,null,null
active,1,null,null,null,path,null,['null'],node657,30,19,2,null,null
active,1,null,null,null,path,null,['null'],node658,31,19,2,null,null
active,1,null,null,null,path,null,['null'],node659,32,19,2,null,null
active,1,null,null,null,path,null,['null'],node660,0,20,2,null,null
active,1,null,null,null,bin,null,['null'],node661,1,20,2,null,null
active,1,null,null,null,bin,null,['null'],node662,2,20,2,null,null
active,1,null,null,null,bin,null,['null'],node663,3,20,2,null,null
active,1,null,null,null,bin,null,['null'],node664,4,20,2,null,null
active,1,null,null,null,bin,null,['null'],node665,5,20,2,null,null
active,1,null,null,null,bin,null,['null'],node666,6,20,2,null,null
active,1,null,null,null,bin,null,['null'],node667,7,20,2,null,null
active,1,null,null,null,bin,null,['null'],node668,8,20,2,null,null
active,1,null,null,null,bin,null,['null'],node669,9,20,2,null,null
active,1,null,null,null,bin,null,['null'],node670,10,20,2,null,null
active,1,null,null,null,bin,null,['null'],node671,11,20,2,null,null
active,1,null,null,null,bin,null,['null'],node672,12,20,2,null,null
active,1,null,null,null,bin,null,['null'],node673,13,20,2,null,null
active,1,null,null,null,bin,null,['null'],node674,14,20,2,null,null
active,1,null,null,null,bin,null,['null'],node675,15,20,2,null,null
active,1,null,null,null,bin,null,['null'],node676,16,20,2,null,null
active,1,null,null,null,path,null,['null'],node677,17,20,2,null,null
active,1,null,null,null,bin,null,['null'],node678,18,20,2,null,null
active,1,null,null,null,bin,null,['null'],node679,19,20,2,null,null
active,1,null,null,null,bin,null,['null'],node680,20,20,2,null,null
active,1,null,null,null,bin,null,['null'],node681,21,20,2,null,null
active,1,null,null,null,bin,null,['null'],node682,22,20,2,null,null
active,1,null,null,null,bin,null,['null'],node683,23,20,2,null,null
active,1,null,null,null,bin,null,['null'],node684,24,20,2,null,null
active,1,null,null,null,bin,null,['null'],node685,25,20,2,null,null
active,1,null,null,null,bin,null,['null'],node686,26,20,2,null,null
active,1,null,null,null,bin,null,['null'],node687,27,20,2,null,null
active,1,null,null,null,bin,null,['null'],node688,28,20,2,null,null
active,1,null,null,null,bin,null,['null'],node689,29,20,2,null,null
active,1,null,null,null,bin,null,['null'],node690,30,20,2,null,null
active,1,null,null,null,bin,null,['null'],node691,31,20,2,null,null
active,1,null,null,null,path,null,['null'],node692,32,20,2,null,null
active,1,null,null,null,path,null,['null'],node693,0,21,2,null,null
active,1,null,null,null,bin,null,['null'],node694,1,21,2,null,null
active,1,null,null,null,bin,null,['null'],node695,2,21,2,null,null
active,1,null,null,null,bin,null,['null'],node696,3,21,2,null,null
active,1,null,null,null,bin,null,['null'],node697,4,21,2,null,null
active,1,null,null,null,bin,null,['null'],node698,5,21,2,null,null
active,1,null,null,null,bin,null,['null'],node699,6,21,2,null,null
active,1,null,null,null,bin,null,['null'],node700,7,21,2,null,null
active,1,null,null,null,bin,null,['null'],node701,8,21,2,null,null
active,1,null,null,null,bin,null,['null'],node702,9,21,2,null,null
active,1,null,null,null,bin,null,['null'],node703,10,21,2,null,null
active,1,null,null,null,bin,null,['null'],node704,11,21,2,null,null
active,1,null,null,null,bin,null,['null'],node705,12,21,2,null,null
active,1,null,null,null,bin,null,['null'],node706,13,21,2,null,null
active,1,null,null,null,bin,null,['null'],node707,14,21,2,null,null
active,1,null,null,null,bin,null,['null'],node708,15,21,2,null,null
active,1,null,null,null,bin,null,['null'],node709,16,21,2,null,null
active,1,null,null,null,path,null,['null'],node710,17,21,2,null,null
active,1,null,null,null,bin,null,['null'],node711,18,21,2,null,null
active,1,null,null,null,bin,null,['null'],node712,19,21,2,null,null
active,1,null,null,null,bin,null,['null'],node713,20,21,2,null,null
active,1,null,null,null,bin,null,['null'],node714,21,21,2,null,null
active,1,null,null,null,bin,null,['null'],node715,22,21,2,null,null
active,1,null,null,null,bin,null,['null'],node716,23,21,2,null,null
active,1,null,null,null,bin,null,['null'],node717,24,21,2,null,null
active,1,null,null,null,bin,null,['null'],node718,25,21,2,null,null
active,1,null,null,null,bin,null,['null'],node719,26,21,2,null,null
active,1,null,null,null,bin,null,['null'],node720,27,21,2,null,null
active,1,null,null,null,bin,null,['null'],node721,28,21,2,null,null
active,1,null,null,null,bin,null,['null'],node722,29,21,2,null,null
active,1,null,null,null,bin,null,['null'],node723,30,21,2,null,null
active,1,null,null,null,bin,null,['null'],node724,31,21,2,null,null
active,1,null,null,null,path,null,['null'],node725,32,21,2,null,null
active,1,null,null,null,path,null,['null'],node726,0,22,2,null,null
active,1,null,null,null,path,null,['null'],node727,1,22,2,null,null
active,1,null,null,null,path,null,['null'],node728,2,22,2,null,null
active,1,null,null,null,path,null,['null'],node729,3,22,2,null,null
active,1,null,null,null,path,null,['null'],node730,4,22,2,null,null
active,1,null,null,null,path,null,['null'],node731,5,22,2,null,null
active,1,null,null,null,path,null,['null'],node732,6,22,2,null,null
active,1,null,null,null,path,null,['null'],node733,7,22,2,null,null
active,1,null,null,null,path,null,['null'],node734,8,22,2,null,null
active,1,null,null,null,path,null,['null'],node735,9,22,2,null,null
active,1,null,null,null,path,null,['null'],node736,10,22,2,null,null
active,1,null,null,null,path,null,['null'],node737,11,22,2,null,null
active,1,null,null,null,path,null,['null'],node738,12,22,2,null,null
active,1,null,null,null,path,null,['null'],node739,13,22,2,null,null
active,1,null,null,null,path,null,['null'],node740,14,22,2,null,null
active,1,null,null,null,path,null,['null'],node741,15,22,2,null,null
active,1,null,null,null,path,null,['null'],node742,16,22,2,null,null
active,1,null,null,null,path,null,['null'],node743,17,22,2,null,null
active,1,null,null,null,path,null,['null'],node744,18,22,2,null,null
active,1,null,null,null,path,null,['null'],node745,19,22,2,null,null
active,1,null,null,null,path,null,['null'],node746,20,22,2,null,null
active,1,null,null,null,path,null,['null'],node747,21,22,2,null,null
active,1,null,null,null,path,null,['null'],node748,22,22,2,null,null
active,1,null,null,null,path,null,['null'],node749,23,22,2,null,null
active,1,null,null,null,path,null,['null'],node750,24,22,2,null,null
active,1,null,null,null,path,null,['null'],node751,25,22,2,null,null
active,1,null,null,null,path,null,['null'],node752,26,22,2,null,null
active,1,null,null,null,path,null,['null'],node753,27,22,2,null,null
active,1,null,null,null,path,null,['null'],node754,28,22,2,null,null
active,1,null,null,null,path,null,['null'],node755,29,22,2,null,null
active,1,null,null,null,path,null,['null'],node756,30,22,2,null,null
active,1,null,null,null,path,null,['null'],node757,31,22,2,null,null
active,1,null,null,null,path,null,['null'],node758,32,22,2,null,null
active,1,null,null,null,path,null,['null'],node759,0,23,2,null,null
active,1,null,null,null,bin,null,['null'],node760,1,23,2,null,null
active,1,null,null,null,bin,null,['null'],node761,2,23,2,null,null
active,1,null,null,null,bin,null,['null'],node762,3,23,2,null,null
active,1,null,null,null,bin,null,['null'],node763,4,23,2,null,null
active,1,null,null,null,bin,null,['null'],node764,5,23,2,null,null
active,1,null,null,null,bin,null,['null'],node765,6,23,2,null,null
active,1,null,null,null,bin,null,['null'],node766,7,23,2,null,null
active,1,null,null,null,bin,null,['null'],node767,8,23,2,null,null
active,1,null,null,null,bin,null,['null'],node768,9,23,2,null,null
active,1,null,null,null,bin,null,['null'],node769,10,23,2,null,null
active,1,null,null,null,bin,null,['null'],node770,11,23,2,null,null
active,1,null,null,null,bin,null,['null'],node771,12,23,2,null,null
active,1,null,null,null,bin,null,['null'],node772,13,23,2,null,null
active,1,null,null,null,bin,null,['null'],node773,14,23,2,null,null
active,1,null,null,null,bin,null,['null'],node774,15,23,2,null,null
active,1,null,null,null,bin,null,['null'],node775,16,23,2,null,null
active,1,null,null,null,path,null,['null'],node776,17,23,2,null,null
active,1,null,null,null,bin,null,['null'],node777,18,23,2,null,null
active,1,null,null,null,bin,null,['null'],node778,19,23,2,null,null
active,1,null,null,null,bin,null,['null'],node779,20,23,2,null,null
active,1,null,null,null,bin,null,['null'],node780,21,23,2,null,null
active,1,null,null,null,bin,null,['null'],node781,22,23,2,null,null
active,1,null,null,null,bin,null,['null'],node782,23,23,2,null,null
active,1,null,null,null,bin,null,['null'],node783,24,23,2,null,null
active,1,null,null,null,bin,null,['null'],node784,25,23,2,null,null
active,1,null,null,null,bin,null,['null'],node785,26,23,2,null,null
active,1,null,null,null,bin,null,['null'],node786,27,23,2,null,null
active,1,null,null,null,bin,null,['null'],node787,28,23,2,null,null
active,1,null,null,null,bin,null,['null'],node788,29,23,2,null,null
active,1,null,null,null,bin,null,['null'],node789,30,23,2,null,null
active,1,null,null,null,bin,null,['null'],node790,31,23,2,null,null
active,1,null,null,null,path,null,['null'],node791,32,23,2,null,null
active,1,null,null,null,path,null,['null'],node792,0,24,2,null,null
active,1,null,null,null,bin,null,['null'],node793,1,24,2,null,null
active,1,null,null,null,bin,null,['null'],node794,2,24,2,null,null
active,1,null,null,null,bin,null,['null'],node795,3,24,2,null,null
active,1,null,null,null,bin,null,['null'],node796,4,24,2,null,null
active,1,null,null,null,bin,null,['null'],node797,5,24,2,null,null
active,1,null,null,null,bin,null,['null'],node798,6,24,2,null,null
active,1,null,null,null,bin,null,['null'],node799,7,24,2,null,null
active,1,null,null,null,bin,null,['null'],node800,8,24,2,null,null
active,1,null,null,null,bin,null,['null'],node801,9,24,2,null,null
active,1,null,null,null,bin,null,['null'],node802,10,24,2,null,null
active,1,null,null,null,bin,null,['null'],node803,11,24,2,null,null
active,1,null,null,null,bin,null,['null'],node804,12,24,2,null,null
active,1,null,null,null,bin,null,['null'],node805,13,24,2,null,null
active,1,null,null,null,bin,null,['null'],node806,14,24,2,null,null
active,1,null,null,null,bin,null,['null'],node807,15,24,2,null,null
active,1,null,null,null,bin,null,['null'],node808,16,24,2,null,null
active,1,null,null,null,path,null,['null'],node809,17,24,2,null,null
active,1,null,null,null,bin,null,['null'],node810,18,24,2,null,null
active,1,null,null,null,bin,null,['null'],node811,19,24,2,null,null
active,1,null,null,null,bin,null,['null'],node812,20,24,2,null,null
active,1,null,null,null,bin,null,['null'],node813,21,24,2,null,null
active,1,null,null,null,bin,null,['null'],node814,22,24,2,null,null
active,1,null,null,null,bin,null,['null'],node815,23,24,2,null,null
active,1,null,null,null,bin,null,['null'],node816,24,24,2,null,null
active,1,null,null,null,bin,null,['null'],node817,25,24,2,null,null
active,1,null,null,null,bin,null,['null'],node818,26,24,2,null,null
active,1,null,null,null,bin,null,['null'],node819,27,24,2,null,null
active,1,null,null,null,bin,null,['null'],node820,28,24,2,null,null
active,1,null,null,null,bin,null,['null'],node821,29,24,2,null,null
active,1,null,null,null,bin,null,['null'],node822,30,24,2,null,null
active,1,null,null,null,bin,null,['null'],node823,31,24,2,null,null
active,1,null,null,null,path,null,['null'],node824,32,24,2,null,null
active,1,null,null,null,path,null,['null'],node825,0,25,2,null,null
active,1,null,null,null,path,null,['null'],node826,1,25,2,null,null
active,1,null,null,null,path,null,['null'],node827,2,25,2,null,null
active,1,null,null,null,path,null,['null'],node828,3,25,2,null,null
active,1,null,null,null,path,null,['null'],node829,4,25,2,null,null
active,1,null,null,null,path,null,['null'],node830,5,25,2,null,null
active,1,null,null,null,path,null,['null'],node831,6,25,2,null,null
active,1,null,null,null,path,null,['null'],node832,7,25,2,null,null
active,1,null,null,null,path,null,['null'],node833,8,25,2,null,null
active,1,null,null,null,path,null,['null'],node834,9,25,2,null,null
active,1,null,null,null,path,null,['null'],node835,10,25,2,null,null
active,1,null,null,null,path,null,['null'],node836,11,25,2,null,null
active,1,null,null,null,path,null,['null'],node837,12,25,2,null,null
active,1,null,null,null,path,null,['null'],node838,13,25,2,null,null
active,1,null,null,null,path,null,['null'],node839,14,25,2,null,null
active,1,null,null,null,path,null,['null'],node840,15,25,2,null,null
active,1,null,null,null,path,null,['null'],node841,16,25,2,null,null
active,1,null,null,null,path,null,['null'],node842,17,25,2,null,null
active,1,null,null,null,path,null,['null'],node843,18,25,2,null,null
active,1,null,null,null,path,null,['null'],node844,19,25,2,null,null
active,1,null,null,null,path,null,['null'],node845,20,25,2,null,null
active,1,null,null,null,path,null,['null'],node846,21,25,2,null,null
active,1,null,null,null,path,null,['null'],node847,22,25,2,null,null
active,1,null,null,null,path,null,['null'],node848,23,25,2,null,null
active,1,null,null,null,path,null,['null'],node849,24,25,2,null,null
active,1,null,null,null,path,null,['null'],node850,25,25,2,null,null
active,1,null,null,null,path,null,['null'],node851,26,25,2,null,null
active,1,null,null,null,path,null,['null'],node852,27,25,2,null,null
active,1,null,null,null,path,null,['null'],node853,28,25,2,null,null
active,1,null,null,null,path,null,['null'],node854,29,25,2,null,null
active,1,null,null,null,path,null,['null'],node855,30,25,2,null,null
active,1,null,null,null,path,null,['null'],node856,31,25,2,null,null
active,1,null,null,null,path,null,['null'],node857,32,25,2,null,null
active,1,null,null,null,path,null,['null'],node858,0,26,2,null,null
active,1,null,null,null,bin,null,['null'],node859,1,26,2,null,null
active,1,null,null,null,bin,null,['null'],node860,2,26,2,null,null
active,1,null,null,null,bin,null,['null'],node861,3,26,2,null,null
active,1,null,null,null,bin,null,['null'],node862,4,26,2,null,null
active,1,null,null,null,bin,null,['null'],node863,5,26,2,null,null
active,1,null,null,null,bin,null,['null'],node864,6,26,2,null,null
active,1,null,null,null,bin,null,['null'],node865,7,26,2,null,null
active,1,null,null,null,bin,null,['null'],node866,8,26,2,null,null
active,1,null,null,null,bin,null,['null'],node867,9,26,2,null,null
active,1,null,null,null,bin,null,['null'],node868,10,26,2,null,null
active,1,null,null,null,bin,null,['null'],node869,11,26,2,null,null
active,1,null,null,null,bin,null,['null'],node870,12,26,2,null,null
active,1,null,null,null,bin,null,['null'],node871,13,26,2,null,null
active,1,null,null,null,bin,null,['null'],node872,14,26,2,null,null
active,1,null,null,null,bin,null,['null'],node873,15,26,2,null,null
active,1,null,null,null,bin,null,['null'],node874,16,26,2,null,null
active,1,null,null,null,path,null,['null'],node875,17,26,2,null,null
active,1,null,null,null,bin,null,['null'],node876,18,26,2,null,null
active,1,null,null,null,bin,null,['null'],node877,19,26,2,null,null
active,1,null,null,null,bin,null,['null'],node878,20,26,2,null,null
active,1,null,null,null,bin,null,['null'],node879,21,26,2,null,null
active,1,null,null,null,bin,null,['null'],node880,22,26,2,null,null
active,1,null,null,null,bin,null,['null'],node881,23,26,2,null,null
active,1,null,null,null,bin,null,['null'],node882,24,26,2,null,null
active,1,null,null,null,bin,null,['null'],node883,25,26,2,null,null
active,1,null,null,null,bin,null,['null'],node884,26,26,2,null,null
active,1,null,null,null,bin,null,['null'],node885,27,26,2,null,null
active,1,null,null,null,bin,null,['null'],node886,28,26,2,null,null
active,1,null,null,null,bin,null,['null'],node887,29,26,2,null,null
active,1,null,null,null,bin,null,['null'],node888,30,26,2,null,null
active,1,null,null,null,bin,null,['null'],node889,31,26,2,null,null
active,1,null,null,null,path,null,['null'],node890,32,26,2,null,null
active,1,null,null,null,path,null,['null'],node891,0,27,2,null,null
active,1,null,null,null,bin,null,['null'],node892,1,27,2,null,null
active,1,null,null,null,bin,null,['null'],node893,2,27,2,null,null
active,1,null,null,null,bin,null,['null'],node894,3,27,2,null,null
active,1,null,null,null,bin,null,['null'],node895,4,27,2,null,null
active,1,null,null,null,bin,null,['null'],node896,5,27,2,null,null
active,1,null,null,null,bin,null,['null'],node897,6,27,2,null,null
active,1,null,null,null,bin,null,['null'],node898,7,27,2,null,null
active,1,null,null,null,bin,null,['null'],node899,8,27,2,null,null
active,1,null,null,null,bin,null,['null'],node900,9,27,2,null,null
active,1,null,null,null,bin,null,['null'],node901,10,27,2,null,null
active,1,null,null,null,bin,null,['null'],node902,11,27,2,null,null
active,1,null,null,null,bin,null,['null'],node903,12,27,2,null,null
active,1,null,null,null,bin,null,['null'],node904,13,27,2,null,null
active,1,null,null,null,bin,null,['null'],node905,14,27,2,null,null
active,1,null,null,null,bin,null,['null'],node906,15,27,2,null,null
active,1,null,null,null,bin,null,['null'],node907,16,27,2,null,null
active,1,null,null,null,path,null,['null'],node908,17,27,2,null,null
active,1,null,null,null,bin,null,['null'],node909,18,27,2,null,null
active,1,null,null,null,bin,null,['null'],node910,19,27,2,null,null
active,1,null,null,null,bin,null,['null'],node911,20,27,2,null,null
active,1,null,null,null,bin,null,['null'],node912,21,27,2,null,null
active,1,null,null,null,bin,null,['null'],node913,22,27,2,null,null
active,1,null,null,null,bin,null,['null'],node914,23,27,2,null,null
active,1,null,null,null,bin,null,['null'],node915,24,27,2,null,null
active,1,null,null,null,bin,null,['null'],node916,25,27,2,null,null
active,1,null,null,null,bin,null,['null'],node917,26,27,2,null,null
active,1,null,null,null,bin,null,['null'],node918,27,27,2,null,null
active,1,null,null,null,bin,null,['null'],node919,28,27,2,null,null
active,1,null,null,null,bin,null,['null'],node920,29,27,2,null,null
active,1,null,null,null,bin,null,['null'],node921,30,27,2,null,null
active,1,null,null,null,bin,null,['null'],node922,31,27,2,null,null
active,1,null,null,null,path,null,['null'],node923,32,27,2,null,null
active,1,null,null,null,path,null,['null'],node924,0,28,2,null,null
active,1,null,null,null,path,null,['null'],node925,1,28,2,null,null
active,1,null,null,null,path,null,['null'],node926,2,28,2,null,null
active,1,null,null,null,path,null,['null'],node927,3,28,2,null,null
active,1,null,null,null,path,null,['null'],node928,4,28,2,null,null
active,1,null,null,null,path,null,['null'],node929,5,28,2,null,null
active,1,null,null,null,path,null,['null'],node930,6,28,2,null,null
active,1,null,null,null,path,null,['null'],node931,7,28,2,null,null
active,1,null,null,null,path,null,['null'],node932,8,28,2,null,null
active,1,null,null,null,path,null,['null'],node933,9,28,2,null,null
active,1,null,null,null,path,null,['null'],node934,10,28,2,null,null
active,1,null,null,null,path,null,['null'],node935,11,28,2,null,null
active,1,null,null,null,path,null,['null'],node936,12,28,2,null,null
active,1,null,null,null,path,null,['null'],node937,13,28,2,null,null
active,1,null,null,null,path,null,['null'],node938,14,28,2,null,null
active,1,null,null,null,path,null,['null'],node939,15,28,2,null,null
active,1,null,null,null,path,null,['null'],node940,16,28,2,null,null
active,1,null,null,null,path,null,['null'],node941,17,28,2,null,null
active,1,null,null,null,path,null,['null'],node942,18,28,2,null,null
active,1,null,null,null,path,null,['null'],node943,19,28,2,null,null
active,1,null,null,null,path,null,['null'],node944,20,28,2,null,null
active,1,null,null,null,path,null,['null'],node945,21,28,2,null,null
active,1,null,null,null,path,null,['null'],node946,22,28,2,null,null
active,1,null,null,null,path,null,['null'],node947,23,28,2,null,null
active,1,null,null,null,path,null,['null'],node948,24,28,2,null,null
active,1,null,null,null,path,null,['null'],node949,25,28,2,null,null
active,1,null,null,null,path,null,['null'],node950,26,28,2,null,null
active,1,null,null,null,path,null,['null'],node951,27,28,2,null,null
active,1,null,null,null,path,null,['null'],node952,28,28,2,null,null
active,1,null,null,null,path,null,['null'],node953,29,28,2,null,null
active,1,null,null,null,path,null,['null'],node954,30,28,2,null,null
active,1,null,null,null,path,null,['null'],node955,31,28,2,null,null
active,1,null,null,null,path,null,['null'],node956,32,28,2,null,null
active,1,null,null,null,path,null,['null'],node957,0,29,2,null,null
active,1,null,null,null,bin,null,['null'],node958,1,29,2,null,null
active,1,null,null,null,bin,null,['null'],node959,2,29,2,null,null
active,1,null,null,null,bin,null,['null'],node960,3,29,2,null,null
active,1,null,null,null,bin,null,['null'],node961,4,29,2,null,null
active,1,null,null,null,bin,null,['null'],node962,5,29,2,null,null
active,1,null,null,null,bin,null,['null'],node963,6,29,2,null,null
active,1,null,null,null,bin,null,['null'],node964,7,29,2,null,null
active,1,null,null,null,bin,null,['null'],node965,8,29,2,null,null
active,1,null,null,null,bin,null,['null'],node966,9,29,2,null,null
active,1,null,null,null,bin,null,['null'],node967,10,29,2,null,null
active,1,null,null,null,bin,null,['null'],node968,11,29,2,null,null
active,1,null,null,null,bin,null,['null'],node969,12,29,2,null,null
active,1,null,null,null,bin,null,['null'],node970,13,29,2,null,null
active,1,null,null,null,bin,null,['null'],node971,14,29,2,null,null
active,1,null,null,null,bin,null,['null'],node972,15,29,2,null,null
active,1,null,null,null,bin,null,['null'],node973,16,29,2,null,null
active,1,null,null,null,path,null,['null'],node974,17,29,2,null,null
active,1,null,null,null,bin,null,['null'],node975,18,29,2,null,null
active,1,null,null,null,bin,null,['null'],node976,19,29,2,null,null
active,1,null,null,null,bin,null,['null'],node977,20,29,2,null,null
active,1,null,null,null,bin,null,['null'],node978,21,29,2,null,null
active,1,null,null,null,bin,null,['null'],node979,22,29,2,null,null
active,1,null,null,null,bin,null,['null'],node980,23,29,2,null,null
active,1,null,null,null,bin,null,['null'],node981,24,29,2,null,null
active,1,null,null,null,bin,null,['null'],node982,25,29,2,null,null
active,1,null,null,null,bin,null,['null'],node983,26,29,2,null,null
active,1,null,null,null,bin,null,['null'],node984,27,29,2,null,null
active,1,null,null,null,bin,null,['null'],node985,28,29,2,null,null
active,1,null,null,null,bin,null,['null'],node986,29,29,2,null,null
active,1,null,null,null,bin,null,['null'],node987,30,29,2,null,null
active,1,null,null,null,bin,null,['null'],node988,31,29,2,null,null
active,1,null,null,null,path,null,['null'],node989,32,29,2,null,null
active,1,null,null,null,path,null,['null'],node990,0,30,2,null,null
active,1,null,null,null,bin,null,['null'],node991,1,30,2,null,null
active,1,null,null,null,bin,null,['null'],node992,2,30,2,null,null
active,1,null,null,null,bin,null,['null'],node993,3,30,2,null,null
active,1,null,null,null,bin,null,['null'],node994,4,30,2,null,null
active,1,null,null,null,bin,null,['null'],node995,5,30,2,null,null
active,1,null,null,null,bin,null,['null'],node996,6,30,2,null,null
active,1,null,null,null,bin,null,['null'],node997,7,30,2,null,null
active,1,null,null,null,bin,null,['null'],node998,8,30,2,null,null
active,1,null,null,null,bin,null,['null'],node999,9,30,2,null,null
active,1,null,null,null,bin,null,['null'],node1000,10,30,2,null,null
active,1,null,null,null,bin,null,['null'],node1001,11,30,2,null,null
active,1,null,null,null,bin,null,['null'],node1002,12,30,2,null,null
active,1,null,null,null,bin,null,['null'],node1003,13,30,2,null,null
active,1,null,null,null,bin,null,['null'],node1004,14,30,2,null,null
active,1,null,null,null,bin,null,['null'],node1005,15,30,2,null,null
active,1,null,null,null,bin,null,['null'],node1006,16,30,2,null,null
active,1,null,null,null,path,null,['null'],node1007,17,30,2,null,null
active,1,null,null,null,bin,null,['null'],node1008,18,30,2,null,null
active,1,null,null,null,bin,null,['null'],node1009,19,30,2,null,null
active,1,null,null,null,bin,null,['null'],node1010,20,30,2,null,null
active,1,null,null,null,bin,null,['null'],node1011,21,30,2,null,null
active,1,null,null,null,bin,null,['null'],node1012,22,30,2,null,null
active,1,null,null,null,bin,null,['null'],node1013,23,30,2,null,null
active,1,null,null,null,bin,null,['null'],node1014,24,30,2,null,null
active,1,null,null,null,bin,null,['null'],node1015,25,30,2,null,null
active,1,null,null,null,bin,null,['null'],node1016,26,30,2,null,null
active,1,null,null,null,bin,null,['null'],node1017,27,30,2,null,null
active,1,null,null,null,bin,null,['null'],node1018,28,30,2,null,null
active,1,null,null,null,bin,null,['null'],node1019,29,30,2,null,null
active,1,null,null,null,bin,null,['null'],node1020,30,30,2,null,null
active,1,null,null,null,bin,null,['null'],node1021,31,30,2,null,null
active,1,null,null,null,path,null,['null'],node1022,32,30,2,null,null
active,1,null,null,null,path,null,['null'],node1023,0,31,2,null,null
active,1,null,null,null,path,null,['null'],node1024,1,31,2,null,null
active,1,null,null,null,path,null,['null'],node1025,2,31,2,null,null
active,1,null,null,null,path,null,['null'],node1026,3,31,2,null,null
active,1,null,null,null,path,null,['null'],node1027,4,31,2,null,null
active,1,null,null,null,path,null,['null'],node1028,5,31,2,null,null
active,1,null,null,null,path,null,['null'],node1029,6,31,2,null,null
active,1,null,null,null,path,null,['null'],node1030,7,31,2,null,null
active,1,null,null,null,path,null,['null'],node1031,8,31,2,null,null
active,1,null,null,null,path,null,['null'],node1032,9,31,2,null,null
active,1,null,null,null,path,null,['null'],node1033,10,31,2,null,null
active,1,null,null,null,path,null,['null'],node1034,11,31,2,null,null
active,1,null,null,null,path,null,['null'],node1035,12,31,2,null,null
active,1,null,null,null,path,null,['null'],node1036,13,31,2,null,null
active,1,null,null,null,path,null,['null'],node1037,14,31,2,null,null
active,1,null,null,null,path,null,['null'],node1038,15,31,2,null,null
active,1,null,null,null,path,null,['null'],node1039,16,31,2,null,null
active,1,null,null,null,path,null,['null'],node1040,17,31,2,null,null
active,1,null,null,null,path,null,['null'],node1041,18,31,2,null,null
active,1,null,null,null,path,null,['null'],node1042,19,31,2,null,null
active,1,null,null,null,path,null,['null'],node1043,20,31,2,null,null
active,1,null,null,null,path,null,['null'],node1044,21,31,2,null,null
active,1,null,null,null,path,null,['null'],node1045,22,31,2,null,null
active,1,null,null,null,path,null,['null'],node1046,23,31,2,null,null
active,1,null,null,null,path,null,['null'],node1047,24,31,2,null,null
active,1,null,null,null,path,null,['null'],node1048,25,31,2,null,null
active,1,null,null,null,path,null,['null'],node1049,26,31,2,null,null
active,1,null,null,null,path,null,['null'],node1050,27,31,2,null,null
active,1,null,null,null,path,null,['null'],node1051,28,31,2,null,null
active,1,null,null,null,path,null,['null'],node1052,29,31,2,null,null
active,1,null,null,null,path,null,['null'],node1053,30,31,2,null,null
active,1,null,null,null,path,null,['null'],node1054,31,31,2,null,null
active,1,null,null,null,path,null,['null'],node1055,32,31,2,null,null
active,1,null,null,null,path,null,['null'],node1056,0,32,2,null,null
active,1,null,null,null,bin,null,['null'],node1057,1,32,2,null,null
active,1,null,null,null,bin,null,['null'],node1058,2,32,2,null,null
active,1,null,null,null,bin,null,['null'],node1059,3,32,2,null,null
active,1,null,null,null,bin,null,['null'],node1060,4,32,2,null,null
active,1,null,null,null,bin,null,['null'],node1061,5,32,2,null,null
active,1,null,null,null,bin,null,['null'],node1062,6,32,2,null,null
active,1,null,null,null,bin,null,['null'],node1063,7,32,2,null,null
active,1,null,null,null,bin,null,['null'],node1064,8,32,2,null,null
active,1,null,null,null,bin,null,['null'],node1065,9,32,2,null,null
active,1,null,null,null,bin,null,['null'],node1066,10,32,2,null,null
active,1,null,null,null,bin,null,['null'],node1067,11,32,2,null,null
active,1,null,null,null,bin,null,['null'],node1068,12,32,2,null,null
active,1,null,null,null,bin,null,['null'],node1069,13,32,2,null,null
active,1,null,null,null,bin,null,['null'],node1070,14,32,2,null,null
active,1,null,null,null,bin,null,['null'],node1071,15,32,2,null,null
active,1,null,null,null,bin,null,['null'],node1072,16,32,2,null,null
active,1,null,null,null,path,null,['null'],node1073,17,32,2,null,null
active,1,null,null,null,bin,null,['null'],node1074,18,32,2,null,null
active,1,null,null,null,bin,null,['null'],node1075,19,32,2,null,null
active,1,null,null,null,bin,null,['null'],node1076,20,32,2,null,null
active,1,null,null,null,bin,null,['null'],node1077,21,32,2,null,null
active,1,null,null,null,bin,null,['null'],node1078,22,32,2,null,null
active,1,null,null,null,bin,null,['null'],node1079,23,32,2,null,null
active,1,null,null,null,bin,null,['null'],node1080,24,32,2,null,null
active,1,null,null,null,bin,null,['null'],node1081,25,32,2,null,null
active,1,null,null,null,bin,null,['null'],node1082,26,32,2,null,null
active,1,null,null,null,bin,null,['null'],node1083,27,32,2,null,null
active,1,null,null,null,bin,null,['null'],node1084,28,32,2,null,null
active,1,null,null,null,bin,null,['null'],node1085,29,32,2,null,null
active,1,null,null,null,bin,null,['null'],node1086,30,32,2,null,null
active,1,null,null,null,bin,null,['null'],node1087,31,32,2,null,null
active,1,null,null,null,path,null,['null'],node1088,32,32,2,null,null
active,1,null,null,null,path,null,['null'],node1089,0,33,2,null,null
active,1,null,null,null,bin,null,['null'],node1090,1,33,2,null,null
active,1,null,null,null,bin,null,['null'],node1091,2,33,2,null,null
active,1,null,null,null,bin,null,['null'],node1092,3,33,2,null,null
active,1,null,null,null,bin,null,['null'],node1093,4,33,2,null,null
active,1,null,null,null,bin,null,['null'],node1094,5,33,2,null,null
active,1,null,null,null,bin,null,['null'],node1095,6,33,2,null,null
active,1,null,null,null,bin,null,['null'],node1096,7,33,2,null,null
active,1,null,null,null,bin,null,['null'],node1097,8,33,2,null,null
active,1,null,null,null,bin,null,['null'],node1098,9,33,2,null,null
active,1,null,null,null,bin,null,['null'],node1099,10,33,2,null,null
active,1,null,null,null,bin,null,['null'],node1100,11,33,2,null,null
active,1,null,null,null,bin,null,['null'],node1101,12,33,2,null,null
active,1,null,null,null,bin,null,['null'],node1102,13,33,2,null,null
active,1,null,null,null,bin,null,['null'],node1103,14,33,2,null,null
active,1,null,null,null,bin,null,['null'],node1104,15,33,2,null,null
active,1,null,null,null,bin,null,['null'],node1105,16,33,2,null,null
active,1,null,null,null,path,null,['null'],node1106,17,33,2,null,null
active,1,null,null,null,bin,null,['null'],node1107,18,33,2,null,null
active,1,null,null,null,bin,null,['null'],node1108,19,33,2,null,null
active,1,null,null,null,bin,null,['null'],node1109,20,33,2,null,null
active,1,null,null,null,bin,null,['null'],node1110,21,33,2,null,null
active,1,null,null,null,bin,null,['null'],node1111,22,33,2,null,null
active,1,null,null,null,bin,null,['null'],node1112,23,33,2,null,null
active,1,null,null,null,bin,null,['null'],node1113,24,33,2,null,null
active,1,null,null,null,bin,null,['null'],node1114,25,33,2,null,null
active,1,null,null,null,bin,null,['null'],node1115,26,33,2,null,null
active,1,null,null,null,bin,null,['null'],node1116,27,33,2,null,null
active,1,null,null,null,bin,null,['null'],node1117,28,33,2,null,null
active,1,null,null,null,bin,null,['null'],node1118,29,33,2,null,null
active,1,null,null,null,bin,null,['null'],node1119,30,33,2,null,null
active,1,null,null,null,bin,null,['null'],node1120,31,33,2,null,null
active,1,null,null,null,path,null,['null'],node1121,32,33,2,null,null
active,1,null,null,null,path,null,['null'],node1122,0,34,2,null,null
active,1,null,null,null,path,null,['null'],node1123,1,34,2,null,null
active,1,null,null,null,path,null,['null'],node1124,2,34,2,null,null
active,1,null,null,null,path,null,['null'],node1125,3,34,2,null,null
active,1,null,null,null,path,null,['null'],node1126,4,34,2,null,null
active,1,null,null,null,path,null,['null'],node1127,5,34,2,null,null
active,1,null,null,null,path,null,['null'],node1128,6,34,2,null,null
active,1,null,null,null,path,null,['null'],node1129,7,34,2,null,null
active,1,null,null,null,path,null,['null'],node1130,8,34,2,null,null
active,1,null,null,null,path,null,['null'],node1131,9,34,2,null,null
active,1,null,null,null,path,null,['null'],node1132,10,34,2,null,null
active,1,null,null,null,path,null,['null'],node1133,11,34,2,null,null
active,1,null,null,null,path,null,['null'],node1134,12,34,2,null,null
active,1,null,null,null,path,null,['null'],node1135,13,34,2,null,null
active,1,null,null,null,path,null,['null'],node1136,14,34,2,null,null
active,1,null,null,null,path,null,['null'],node1137,15,34,2,null,null
active,1,null,null,null,path,null,['null'],node1138,16,34,2,null,null
active,1,null,null,null,path,null,['null'],node1139,17,34,2,null,null
active,1,null,null,null,path,null,['null'],node1140,18,34,2,null,null
active,1,null,null,null,path,null,['null'],node1141,19,34,2,null,null
active,1,null,null,null,path,null,['null'],node1142,20,34,2,null,null
active,1,null,null,null,path,null,['null'],node1143,21,34,2,null,null
active,1,null,null,null,path,null,['null'],node1144,22,34,2,null,null
active,1,null,null,null,path,null,['null'],node1145,23,34,2,null,null
active,1,null,null,null,path,null,['null'],node1146,24,34,2,null,null
active,1,null,null,null,path,null,['null'],node1147,25,34,2,null,null
active,1,null,null,null,path,null,['null'],node1148,26,34,2,null,null
active,1,null,null,null,path,null,['null'],node1149,27,34,2,null,null
active,1,null,null,null,path,null,['null'],node1150,28,34,2,null,null
active,1,null,null,null,path,null,['null'],node1151,29,34,2,null,null
active,1,null,null,null,path,null,['null'],node1152,30,34,2,null,null
active,1,null,null,null,path,null,['null'],node1153,31,34,2,null,null
active,1,null,null,null,path,null,['null'],node1154,32,34,2,null,null
active,1,null,null,null,path,null,['null'],node1155,0,35,2,null,null
active,1,null,null,null,bin,null,['null'],node1156,1,35,2,null,null
active,1,null,null,null,bin,null,['null'],node1157,2,35,2,null,null
active,1,null,null,null,bin,null,['null'],node1158,3,35,2,null,null
active,1,null,null,null,bin,null,['null'],node1159,4,35,2,null,null
active,1,null,null,null,bin,null,['null'],node1160,5,35,2,null,null
active,1,null,null,null,bin,null,['null'],node1161,6,35,2,null,null
active,1,null,null,null,bin,null,['null'],node1162,7,35,2,null,null
active,1,null,null,null,bin,null,['null'],node1163,8,35,2,null,null
active,1,null,null,null,bin,null,['null'],node1164,9,35,2,null,null
active,1,null,null,null,bin,null,['null'],node1165,10,35,2,null,null
active,1,null,null,null,bin,null,['null'],node1166,11,35,2,null,null
active,1,null,null,null,bin,null,['null'],node1167,12,35,2,null,null
active,1,null,null,null,bin,null,['null'],node1168,13,35,2,null,null
active,1,null,null,null,bin,null,['null'],node1169,14,35,2,null,null
active,1,null,null,null,bin,null,['null'],node1170,15,35,2,null,null
active,1,null,null,null,bin,null,['null'],node1171,16,35,2,null,null
active,1,null,null,null,path,null,['null'],node1172,17,35,2,null,null
active,1,null,null,null,bin,null,['null'],node1173,18,35,2,null,null
active,1,null,null,null,bin,null,['null'],node1174,19,35,2,null,null
active,1,null,null,null,bin,null,['null'],node1175,20,35,2,null,null
active,1,null,null,null,bin,null,['null'],node1176,21,35,2,null,null
active,1,null,null,null,bin,null,['null'],node1177,22,35,2,null,null
active,1,null,null,null,bin,null,['null'],node1178,23,35,2,null,null
active,1,null,null,null,bin,null,['null'],node1179,24,35,2,null,null
active,1,null,null,null,bin,null,['null'],node1180,25,35,2,null,null
active,1,null,null,null,bin,null,['null'],node1181,26,35,2,null,null
active,1,null,null,null,bin,null,['null'],node1182,27,35,2,null,null
active,1,null,null,null,bin,null,['null'],node1183,28,35,2,null,null
active,1,null,null,null,bin,null,['null'],node1184,29,35,2,null,null
active,1,null,null,null,bin,null,['null'],node1185,30,35,2,null,null
active,1,null,null,null,bin,null,['null'],node1186,31,35,2,null,null
active,1,null,null,null,path,null,['null'],node1187,32,35,2,null,null
active,1,null,null,null,path,null,['null'],node1188,0,36,2,null,null
active,1,null,null,null,bin,null,['null'],node1189,1,36,2,null,null
active,1,null,null,null,bin,null,['null'],node1190,2,36,2,null,null
active,1,null,null,null,bin,null,['null'],node1191,3,36,2,null,null
active,1,null,null,null,bin,null,['null'],node1192,4,36,2,null,null
active,1,null,null,null,bin,null,['null'],node1193,5,36,2,null,null
active,1,null,null,null,bin,null,['null'],node1194,6,36,2,null,null
active,1,null,null,null,bin,null,['null'],node1195,7,36,2,null,null
active,1,null,null,null,bin,null,['null'],node1196,8,36,2,null,null
active,1,null,null,null,bin,null,['null'],node1197,9,36,2,null,null
active,1,null,null,null,bin,null,['null'],node1198,10,36,2,null,null
active,1,null,null,null,bin,null,['null'],node1199,11,36,2,null,null
active,1,null,null,null,bin,null,['null'],node1200,12,36,2,null,null
active,1,null,null,null,bin,null,['null'],node1201,13,36,2,null,null
active,1,null,null,null,bin,null,['null'],node1202,14,36,2,null,null
active,1,null,null,null,bin,null,['null'],node1203,15,36,2,null,null
active,1,null,null,null,bin,null,['null'],node1204,16,36,2,null,null
active,1,null,null,null,path,null,['null'],node1205,17,36,2,null,null
active,1,null,null,null,bin,null,['null'],node1206,18,36,2,null,null
active,1,null,null,null,bin,null,['null'],node1207,19,36,2,null,null
active,1,null,null,null,bin,null,['null'],node1208,20,36,2,null,null
active,1,null,null,null,bin,null,['null'],node1209,21,36,2,null,null
active,1,null,null,null,bin,null,['null'],node1210,22,36,2,null,null
active,1,null,null,null,bin,null,['null'],node1211,23,36,2,null,null
active,1,null,null,null,bin,null,['null'],node1212,24,36,2,null,null
active,1,null,null,null,bin,null,['null'],node1213,25,36,2,null,null
active,1,null,null,null,bin,null,['null'],node1214,26,36,2,null,null
active,1,null,null,null,bin,null,['null'],node1215,27,36,2,null,null
active,1,null,null,null,bin,null,['null'],node1216,28,36,2,null,null
active,1,null,null,null,bin,null,['null'],node1217,29,36,2,null,null
active,1,null,null,null,bin,null,['null'],node1218,30,36,2,null,null
active,1,null,null,null,bin,null,['null'],node1219,31,36,2,null,null
active,1,null,null,null,path,null,['null'],node1220,32,36,2,null,null
active,1,null,null,null,path,null,['null'],node1221,0,37,2,null,null
active,1,null,null,null,path,null,['null'],node1222,1,37,2,null,null
active,1,null,null,null,path,null,['null'],node1223,2,37,2,null,null
active,1,null,null,null,path,null,['null'],node1224,3,37,2,null,null
active,1,null,null,null,path,null,['null'],node1225,4,37,2,null,null
active,1,null,null,null,path,null,['null'],node1226,5,37,2,null,null
active,1,null,null,null,path,null,['null'],node1227,6,37,2,null,null
active,1,null,null,null,path,null,['null'],node1228,7,37,2,null,null
active,1,null,null,null,path,null,['null'],node1229,8,37,2,null,null
active,1,null,null,null,path,null,['null'],node1230,9,37,2,null,null
active,1,null,null,null,path,null,['null'],node1231,10,37,2,null,null
active,1,null,null,null,path,null,['null'],node1232,11,37,2,null,null
active,1,null,null,null,path,null,['null'],node1233,12,37,2,null,null
active,1,null,null,null,path,null,['null'],node1234,13,37,2,null,null
active,1,null,null,null,path,null,['null'],node1235,14,37,2,null,null
active,1,null,null,null,path,null,['null'],node1236,15,37,2,null,null
active,1,null,null,null,path,null,['null'],node1237,16,37,2,null,null
active,1,null,null,null,path,null,['null'],node1238,17,37,2,null,null
active,1,null,null,null,path,null,['null'],node1239,18,37,2,null,null
active,1,null,null,null,path,null,['null'],node1240,19,37,2,null,null
active,1,null,null,null,path,null,['null'],node1241,20,37,2,null,null
active,1,null,null,null,path,null,['null'],node1242,21,37,2,null,null
active,1,null,null,null,path,null,['null'],node1243,22,37,2,null,null
active,1,null,null,null,path,null,['null'],node1244,23,37,2,null,null
active,1,null,null,null,path,null,['null'],node1245,24,37,2,null,null
active,1,null,null,null,path,null,['null'],node1246,25,37,2,null,null
active,1,null,null,null,path,null,['null'],node1247,26,37,2,null,null
active,1,null,null,null,path,null,['null'],node1248,27,37,2,null,null
active,1,null,null,null,path,null,['null'],node1249,28,37,2,null,null
active,1,null,null,null,path,null,['null'],node1250,29,37,2,null,null
active,1,null,null,null,path,null,['null'],node1251,30,37,2,null,null
active,1,null,null,null,path,null,['null'],node1252,31,37,2,null,null
active,1,null,null,null,path,null,['null'],node1253,32,37,2,null,null
active,1,null,null,null,path,null,['null'],node1254,0,38,2,null,null
active,1,null,null,null,bin,null,['null'],node1255,1,38,2,null,null
active,1,null,null,null,bin,null,['null'],node1256,2,38,2,null,null
active,1,null,null,null,bin,null,['null'],node1257,3,38,2,null,null
active,1,null,null,null,bin,null,['null'],node1258,4,38,2,null,null
active,1,null,null,null,bin,null,['null'],node1259,5,38,2,null,null
active,1,null,null,null,bin,null,['null'],node1260,6,38,2,null,null
active,1,null,null,null,bin,null,['null'],node1261,7,38,2,null,null
active,1,null,null,null,bin,null,['null'],node1262,8,38,2,null,null
active,1,null,null,null,bin,null,['null'],node1263,9,38,2,null,null
active,1,null,null,null,bin,null,['null'],node1264,10,38,2,null,null
active,1,null,null,null,bin,null,['null'],node1265,11,38,2,null,null
active,1,null,null,null,bin,null,['null'],node1266,12,38,2,null,null
active,1,null,null,null,bin,null,['null'],node1267,13,38,2,null,null
active,1,null,null,null,bin,null,['null'],node1268,14,38,2,null,null
active,1,null,null,null,bin,null,['null'],node1269,15,38,2,null,null
active,1,null,null,null,bin,null,['null'],node1270,16,38,2,null,null
active,1,null,null,null,path,null,['null'],node1271,17,38,2,null,null
active,1,null,null,null,bin,null,['null'],node1272,18,38,2,null,null
active,1,null,null,null,bin,null,['null'],node1273,19,38,2,null,null
active,1,null,null,null,bin,null,['null'],node1274,20,38,2,null,null
active,1,null,null,null,bin,null,['null'],node1275,21,38,2,null,null
active,1,null,null,null,bin,null,['null'],node1276,22,38,2,null,null
active,1,null,null,null,bin,null,['null'],node1277,23,38,2,null,null
active,1,null,null,null,bin,null,['null'],node1278,24,38,2,null,null
active,1,null,null,null,bin,null,['null'],node1279,25,38,2,null,null
active,1,null,null,null,bin,null,['null'],node1280,26,38,2,null,null
active,1,null,null,null,bin,null,['null'],node1281,27,38,2,null,null
active,1,null,null,null,bin,null,['null'],node1282,28,38,2,null,null
active,1,null,null,null,bin,null,['null'],node1283,29,38,2,null,null
active,1,null,null,null,bin,null,['null'],node1284,30,38,2,null,null
active,1,null,null,null,bin,null,['null'],node1285,31,38,2,null,null
active,1,null,null,null,path,null,['null'],node1286,32,38,2,null,null
active,1,null,null,null,path,null,['null'],node1287,0,39,2,null,null
active,1,null,null,null,bin,null,['null'],node1288,1,39,2,null,null
active,1,null,null,null,bin,null,['null'],node1289,2,39,2,null,null
active,1,null,null,null,bin,null,['null'],node1290,3,39,2,null,null
active,1,null,null,null,bin,null,['null'],node1291,4,39,2,null,null
active,1,null,null,null,bin,null,['null'],node1292,5,39,2,null,null
active,1,null,null,null,bin,null,['null'],node1293,6,39,2,null,null
active,1,null,null,null,bin,null,['null'],node1294,7,39,2,null,null
active,1,null,null,null,bin,null,['null'],node1295,8,39,2,null,null
active,1,null,null,null,bin,null,['null'],node1296,9,39,2,null,null
active,1,null,null,null,bin,null,['null'],node1297,10,39,2,null,null
active,1,null,null,null,bin,null,['null'],node1298,11,39,2,null,null
active,1,null,null,null,bin,null,['null'],node1299,12,39,2,null,null
active,1,null,null,null,bin,null,['null'],node1300,13,39,2,null,null
active,1,null,null,null,bin,null,['null'],node1301,14,39,2,null,null
active,1,null,null,null,bin,null,['null'],node1302,15,39,2,null,null
active,1,null,null,null,bin,null,['null'],node1303,16,39,2,null,null
active,1,null,null,null,path,null,['null'],node1304,17,39,2,null,null
active,1,null,null,null,bin,null,['null'],node1305,18,39,2,null,null
active,1,null,null,null,bin,null,['null'],node1306,19,39,2,null,null
active,1,null,null,null,bin,null,['null'],node1307,20,39,2,null,null
active,1,null,null,null,bin,null,['null'],node1308,21,39,2,null,null
active,1,null,null,null,bin,null,['null'],node1309,22,39,2,null,null
active,1,null,null,null,bin,null,['null'],node1310,23,39,2,null,null
active,1,null,null,null,bin,null,['null'],node1311,24,39,2,null,null
active,1,null,null,null,bin,null,['null'],node1312,25,39,2,null,null
active,1,null,null,null,bin,null,['null'],node1313,26,39,2,null,null
active,1,null,null,null,bin,null,['null'],node1314,27,39,2,null,null
active,1,null,null,null,bin,null,['null'],node1315,28,39,2,null,null
active,1,null,null,null,bin,null,['null'],node1316,29,39,2,null,null
active,1,null,null,null,bin,null,['null'],node1317,30,39,2,null,null
active,1,null,null,null,bin,null,['null'],node1318,31,39,2,null,null
active,1,null,null,null,path,null,['null'],node1319,32,39,2,null,null
active,1,null,null,null,path,null,['null'],node1320,0,40,2,null,null
active,1,null,null,null,path,null,['null'],node1321,1,40,2,null,null
active,1,null,null,null,path,null,['null'],node1322,2,40,2,null,null
active,1,null,null,null,path,null,['null'],node1323,3,40,2,null,null
active,1,null,null,null,path,null,['null'],node1324,4,40,2,null,null
active,1,null,null,null,path,null,['null'],node1325,5,40,2,null,null
active,1,null,null,null,path,null,['null'],node1326,6,40,2,null,null
active,1,null,null,null,path,null,['null'],node1327,7,40,2,null,null
active,1,null,null,null,path,null,['null'],node1328,8,40,2,null,null
active,1,null,null,null,path,null,['null'],node1329,9,40,2,null,null
active,1,null,null,null,path,null,['null'],node1330,10,40,2,null,null
active,1,null,null,null,path,null,['null'],node1331,11,40,2,null,null
active,1,null,null,null,path,null,['null'],node1332,12,40,2,null,null
active,1,null,null,null,path,null,['null'],node1333,13,40,2,null,null
active,1,null,null,null,path,null,['null'],node1334,14,40,2,null,null
active,1,null,null,null,path,null,['null'],node1335,15,40,2,null,null
active,1,null,null,null,path,null,['null'],node1336,16,40,2,null,null
active,1,null,null,null,path,null,['null'],node1337,17,40,2,null,null
active,1,null,null,null,path,null,['null'],node1338,18,40,2,null,null
active,1,null,null,null,path,null,['null'],node1339,19,40,2,null,null
active,1,null,null,null,path,null,['null'],node1340,20,40,2,null,null
active,1,null,null,null,path,null,['null'],node1341,21,40,2,null,null
active,1,null,null,null,path,null,['null'],node1342,22,40,2,null,null
active,1,null,null,null,path,null,['null'],node1343,23,40,2,null,null
active,1,null,null,null,path,null,['null'],node1344,24,40,2,null,null
active,1,null,null,null,path,null,['null'],node1345,25,40,2,null,null
active,1,null,null,null,path,null,['null'],node1346,26,40,2,null,null
active,1,null,null,null,path,null,['null'],node1347,27,40,2,null,null
active,1,null,null,null,path,null,['null'],node1348,28,40,2,null,null
active,1,null,null,null,path,null,['null'],node1349,29,40,2,null,null
active,1,null,null,null,path,null,['null'],node1350,30,40,2,null,null
active,1,null,null,null,path,null,['null'],node1351,31,40,2,null,null
active,1,null,null,null,path,null,['null'],node1352,32,40,2,null,null
active,1,null,null,null,path,null,['null'],node1353,0,41,2,null,null
active,1,null,null,null,bin,null,['null'],node1354,1,41,2,null,null
active,1,null,null,null,bin,null,['null'],node1355,2,41,2,null,null
active,1,null,null,null,bin,null,['null'],node1356,3,41,2,null,null
active,1,null,null,null,bin,null,['null'],node1357,4,41,2,null,null
active,1,null,null,null,bin,null,['null'],node1358,5,41,2,null,null
active,1,null,null,null,bin,null,['null'],node1359,6,41,2,null,null
active,1,null,null,null,bin,null,['null'],node1360,7,41,2,null,null
active,1,null,null,null,bin,null,['null'],node1361,8,41,2,null,null
active,1,null,null,null,bin,null,['null'],node1362,9,41,2,null,null
active,1,null,null,null,bin,null,['null'],node1363,10,41,2,null,null
active,1,null,null,null,bin,null,['null'],node1364,11,41,2,null,null
active,1,null,null,null,bin,null,['null'],node1365,12,41,2,null,null
active,1,null,null,null,bin,null,['null'],node1366,13,41,2,null,null
active,1,null,null,null,bin,null,['null'],node1367,14,41,2,null,null
active,1,null,null,null,bin,null,['null'],node1368,15,41,2,null,null
active,1,null,null,null,bin,null,['null'],node1369,16,41,2,null,null
active,1,null,null,null,path,null,['null'],node1370,17,41,2,null,null
active,1,null,null,null,bin,null,['null'],node1371,18,41,2,null,null
active,1,null,null,null,bin,null,['null'],node1372,19,41,2,null,null
active,1,null,null,null,bin,null,['null'],node1373,20,41,2,null,null
active,1,null,null,null,bin,null,['null'],node1374,21,41,2,null,null
active,1,null,null,null,bin,null,['null'],node1375,22,41,2,null,null
active,1,null,null,null,bin,null,['null'],node1376,23,41,2,null,null
active,1,null,null,null,bin,null,['null'],node1377,24,41,2,null,null
active,1,null,null,null,bin,null,['null'],node1378,25,41,2,null,null
active,1,null,null,null,bin,null,['null'],node1379,26,41,2,null,null
active,1,null,null,null,bin,null,['null'],node1380,27,41,2,null,null
active,1,null,null,null,bin,null,['null'],node1381,28,41,2,null,null
active,1,null,null,null,bin,null,['null'],node1382,29,41,2,null,null
active,1,null,null,null,bin,null,['null'],node1383,30,41,2,null,null
active,1,null,null,null,bin,null,['null'],node1384,31,41,2,null,null
active,1,null,null,null,path,null,['null'],node1385,32,41,2,null,null
active,1,null,null,null,path,null,['null'],node1386,0,42,2,null,null
active,1,null,null,null,bin,null,['null'],node1387,1,42,2,null,null
active,1,null,null,null,bin,null,['null'],node1388,2,42,2,null,null
active,1,null,null,null,bin,null,['null'],node1389,3,42,2,null,null
active,1,null,null,null,bin,null,['null'],node1390,4,42,2,null,null
active,1,null,null,null,bin,null,['null'],node1391,5,42,2,null,null
active,1,null,null,null,bin,null,['null'],node1392,6,42,2,null,null
active,1,null,null,null,bin,null,['null'],node1393,7,42,2,null,null
active,1,null,null,null,bin,null,['null'],node1394,8,42,2,null,null
active,1,null,null,null,bin,null,['null'],node1395,9,42,2,null,null
active,1,null,null,null,bin,null,['null'],node1396,10,42,2,null,null
active,1,null,null,null,bin,null,['null'],node1397,11,42,2,null,null
active,1,null,null,null,bin,null,['null'],node1398,12,42,2,null,null
active,1,null,null,null,bin,null,['null'],node1399,13,42,2,null,null
active,1,null,null,null,bin,null,['null'],node1400,14,42,2,null,null
active,1,null,null,null,bin,null,['null'],node1401,15,42,2,null,null
active,1,null,null,null,bin,null,['null'],node1402,16,42,2,null,null
active,1,null,null,null,path,null,['null'],node1403,17,42,2,null,null
active,1,null,null,null,bin,null,['null'],node1404,18,42,2,null,null
active,1,null,null,null,bin,null,['null'],node1405,19,42,2,null,null
active,1,null,null,null,bin,null,['null'],node1406,20,42,2,null,null
active,1,null,null,null,bin,null,['null'],node1407,21,42,2,null,null
active,1,null,null,null,bin,null,['null'],node1408,22,42,2,null,null
active,1,null,null,null,bin,null,['null'],node1409,23,42,2,null,null
active,1,null,null,null,bin,null,['null'],node1410,24,42,2,null,null
active,1,null,null,null,bin,null,['null'],node1411,25,42,2,null,null
active,1,null,null,null,bin,null,['null'],node1412,26,42,2,null,null
active,1,null,null,null,bin,null,['null'],node1413,27,42,2,null,null
active,1,null,null,null,bin,null,['null'],node1414,28,42,2,null,null
active,1,null,null,null,bin,null,['null'],node1415,29,42,2,null,null
active,1,null,null,null,bin,null,['null'],node1416,30,42,2,null,null
active,1,null,null,null,bin,null,['null'],node1417,31,42,2,null,null
active,1,null,null,null,path,null,['null'],node1418,32,42,2,null,null
active,1,null,null,null,path,null,['null'],node1419,0,43,2,null,null
active,1,null,null,null,path,null,['null'],node1420,1,43,2,null,null
active,1,null,null,null,path,null,['null'],node1421,2,43,2,null,null
active,1,null,null,null,path,null,['null'],node1422,3,43,2,null,null
active,1,null,null,null,path,null,['null'],node1423,4,43,2,null,null
active,1,null,null,null,path,null,['null'],node1424,5,43,2,null,null
active,1,null,null,null,path,null,['null'],node1425,6,43,2,null,null
active,1,null,null,null,path,null,['null'],node1426,7,43,2,null,null
active,1,null,null,null,path,null,['null'],node1427,8,43,2,null,null
active,1,null,null,null,path,null,['null'],node1428,9,43,2,null,null
active,1,null,null,null,path,null,['null'],node1429,10,43,2,null,null
active,1,null,null,null,path,null,['null'],node1430,11,43,2,null,null
active,1,null,null,null,path,null,['null'],node1431,12,43,2,null,null
active,1,null,null,null,path,null,['null'],node1432,13,43,2,null,null
active,1,null,null,null,path,null,['null'],node1433,14,43,2,null,null
active,1,null,null,null,path,null,['null'],node1434,15,43,2,null,null
active,1,null,null,null,path,null,['null'],node1435,16,43,2,null,null
active,1,null,null,null,path,null,['null'],node1436,17,43,2,null,null
active,1,null,null,null,path,null,['null'],node1437,18,43,2,null,null
active,1,null,null,null,path,null,['null'],node1438,19,43,2,null,null
active,1,null,null,null,path,null,['null'],node1439,20,43,2,null,null
active,1,null,null,null,path,null,['null'],node1440,21,43,2,null,null
active,1,null,null,null,path,null,['null'],node1441,22,43,2,null,null
active,1,null,null,null,path,null,['null'],node1442,23,43,2,null,null
active,1,null,null,null,path,null,['null'],node1443,24,43,2,null,null
active,1,null,null,null,path,null,['null'],node1444,25,43,2,null,null
active,1,null,null,null,path,null,['null'],node1445,26,43,2,null,null
active,1,null,null,null,path,null,['null'],node1446,27,43,2,null,null
active,1,null,null,null,path,null,['null'],node1447,28,43,2,null,null
active,1,null,null,null,path,null,['null'],node1448,29,43,2,null,null
active,1,null,null,null,path,null,['null'],node1449,30,43,2,null,null
active,1,null,null,null,path,null,['null'],node1450,31,43,2,null,null
active,1,null,null,null,path,null,['null'],node1451,32,43,2,null,null
active,1,null,null,null,path,null,['null'],node1452,0,44,2,null,null
active,1,null,null,null,bin,null,['null'],node1453,1,44,2,null,null
active,1,null,null,null,bin,null,['null'],node1454,2,44,2,null,null
active,1,null,null,null,bin,null,['null'],node1455,3,44,2,null,null
active,1,null,null,null,bin,null,['null'],node1456,4,44,2,null,null
active,1,null,null,null,bin,null,['null'],node1457,5,44,2,null,null
active,1,null,null,null,bin,null,['null'],node1458,6,44,2,null,null
active,1,null,null,null,bin,null,['null'],node1459,7,44,2,null,null
active,1,null,null,null,bin,null,['null'],node1460,8,44,2,null,null
active,1,null,null,null,bin,null,['null'],node1461,9,44,2,null,null
active,1,null,null,null,bin,null,['null'],node1462,10,44,2,null,null
active,1,null,null,null,bin,null,['null'],node1463,11,44,2,null,null
active,1,null,null,null,bin,null,['null'],node1464,12,44,2,null,null
active,1,null,null,null,bin,null,['null'],node1465,13,44,2,null,null
active,1,null,null,null,bin,null,['null'],node1466,14,44,2,null,null
active,1,null,null,null,bin,null,['null'],node1467,15,44,2,null,null
active,1,null,null,null,bin,null,['null'],node1468,16,44,2,null,null
active,1,null,null,null,path,null,['null'],node1469,17,44,2,null,null
active,1,null,null,null,bin,null,['null'],node1470,18,44,2,null,null
active,1,null,null,null,bin,null,['null'],node1471,19,44,2,null,null
active,1,null,null,null,bin,null,['null'],node1472,20,44,2,null,null
active,1,null,null,null,bin,null,['null'],node1473,21,44,2,null,null
active,1,null,null,null,bin,null,['null'],node1474,22,44,2,null,null
active,1,null,null,null,bin,null,['null'],node1475,23,44,2,null,null
active,1,null,null,null,bin,null,['null'],node1476,24,44,2,null,null
active,1,null,null,null,bin,null,['null'],node1477,25,44,2,null,null
active,1,null,null,null,bin,null,['null'],node1478,26,44,2,null,null
active,1,null,null,null,bin,null,['null'],node1479,27,44,2,null,null
active,1,null,null,null,bin,null,['null'],node1480,28,44,2,null,null
active,1,null,null,null,bin,null,['null'],node1481,29,44,2,null,null
active,1,null,null,null,bin,null,['null'],node1482,30,44,2,null,null
active,1,null,null,null,bin,null,['null'],node1483,31,44,2,null,null
active,1,null,null,null,path,null,['null'],node1484,32,44,2,null,null
active,1,null,null,null,path,null,['null'],node1485,0,45,2,null,null
active,1,null,null,null,bin,null,['null'],node1486,1,45,2,null,null
active,1,null,null,null,bin,null,['null'],node1487,2,45,2,null,null
active,1,null,null,null,bin,null,['null'],node1488,3,45,2,null,null
active,1,null,null,null,bin,null,['null'],node1489,4,45,2,null,null
active,1,null,null,null,bin,null,['null'],node1490,5,45,2,null,null
active,1,null,null,null,bin,null,['null'],node1491,6,45,2,null,null
active,1,null,null,null,bin,null,['null'],node1492,7,45,2,null,null
active,1,null,null,null,bin,null,['null'],node1493,8,45,2,null,null
active,1,null,null,null,bin,null,['null'],node1494,9,45,2,null,null
active,1,null,null,null,bin,null,['null'],node1495,10,45,2,null,null
active,1,null,null,null,bin,null,['null'],node1496,11,45,2,null,null
active,1,null,null,null,bin,null,['null'],node1497,12,45,2,null,null
active,1,null,null,null,bin,null,['null'],node1498,13,45,2,null,null
active,1,null,null,null,bin,null,['null'],node1499,14,45,2,null,null
active,1,null,null,null,bin,null,['null'],node1500,15,45,2,null,null
active,1,null,null,null,bin,null,['null'],node1501,16,45,2,null,null
active,1,null,null,null,path,null,['null'],node1502,17,45,2,null,null
active,1,null,null,null,bin,null,['null'],node1503,18,45,2,null,null
active,1,null,null,null,bin,null,['null'],node1504,19,45,2,null,null
active,1,null,null,null,bin,null,['null'],node1505,20,45,2,null,null
active,1,null,null,null,bin,null,['null'],node1506,21,45,2,null,null
active,1,null,null,null,bin,null,['null'],node1507,22,45,2,null,null
active,1,null,null,null,bin,null,['null'],node1508,23,45,2,null,null
active,1,null,null,null,bin,null,['null'],node1509,24,45,2,null,null
active,1,null,null,null,bin,null,['null'],node1510,25,45,2,null,null
active,1,null,null,null,bin,null,['null'],node1511,26,45,2,null,null
active,1,null,null,null,bin,null,['null'],node1512,27,45,2,null,null
active,1,null,null,null,bin,null,['null'],node1513,28,45,2,null,null
active,1,null,null,null,bin,null,['null'],node1514,29,45,2,null,null
active,1,null,null,null,bin,null,['null'],node1515,30,45,2,null,null
active,1,null,null,null,bin,null,['null'],node1516,31,45,2,null,null
active,1,null,null,null,path,null,['null'],node1517,32,45,2,null,null
active,1,null,null,null,path,null,['null'],node1518,0,46,2,null,null
active,1,null,null,null,path,null,['null'],node1519,1,46,2,null,null
active,1,null,null,null,path,null,['null'],node1520,2,46,2,null,null
active,1,null,null,null,path,null,['null'],node1521,3,46,2,null,null
active,1,null,null,null,path,null,['null'],node1522,4,46,2,null,null
active,1,null,null,null,path,null,['null'],node1523,5,46,2,null,null
active,1,null,null,null,path,null,['null'],node1524,6,46,2,null,null
active,1,null,null,null,path,null,['null'],node1525,7,46,2,null,null
active,1,null,null,null,path,null,['null'],node1526,8,46,2,null,null
active,1,null,null,null,path,null,['null'],node1527,9,46,2,null,null
active,1,null,null,null,path,null,['null'],node1528,10,46,2,null,null
active,1,null,null,null,path,null,['null'],node1529,11,46,2,null,null
active,1,null,null,null,path,null,['null'],node1530,12,46,2,null,null
active,1,null,null,null,path,null,['null'],node1531,13,46,2,null,null
active,1,null,null,null,path,null,['null'],node1532,14,46,2,null,null
active,1,null,null,null,path,null,['null'],node1533,15,46,2,null,null
active,1,null,null,null,path,null,['null'],node1534,16,46,2,null,null
active,1,null,null,null,path,null,['null'],node1535,17,46,2,null,null
active,1,null,null,null,path,null,['null'],node1536,18,46,2,null,null
active,1,null,null,null,path,null,['null'],node1537,19,46,2,null,null
active,1,null,null,null,path,null,['null'],node1538,20,46,2,null,null
active,1,null,null,null,path,null,['null'],node1539,21,46,2,null,null
active,1,null,null,null,path,null,['null'],node1540,22,46,2,null,null
active,1,null,null,null,path,null,['null'],node1541,23,46,2,null,null
active,1,null,null,null,path,null,['null'],node1542,24,46,2,null,null
active,1,null,null,null,path,null,['null'],node1543,25,46,2,null,null
active,1,null,null,null,path,null,['null'],node1544,26,46,2,null,null
active,1,null,null,null,path,null,['null'],node1545,27,46,2,null,null
active,1,null,null,null,path,null,['null'],node1546,28,46,2,null,null
active,1,null,null,null,path,null,['null'],node1547,29,46,2,null,null
active,1,null,null,null,path,null,['null'],node1548,30,46,2,null,null
active,1,null,null,null,path,null,['null'],node1549,31,46,2,null,null
active,1,null,null,null,path,null,['null'],node1550,32,46,2,null,null
active,1,null,null,null,path,null,['null'],node1551,0,47,2,null,null
active,1,null,null,null,bin,null,['null'],node1552,1,47,2,null,null
active,1,null,null,null,bin,null,['null'],node1553,2,47,2,null,null
active,1,null,null,null,bin,null,['null'],node1554,3,47,2,null,null
active,1,null,null,null,bin,null,['null'],node1555,4,47,2,null,null
active,1,null,null,null,bin,null,['null'],node1556,5,47,2,null,null
active,1,null,null,null,bin,null,['null'],node1557,6,47,2,null,null
active,1,null,null,null,bin,null,['null'],node1558,7,47,2,null,null
active,1,null,null,null,bin,null,['null'],node1559,8,47,2,null,null
active,1,null,null,null,bin,null,['null'],node1560,9,47,2,null,null
active,1,null,null,null,bin,null,['null'],node1561,10,47,2,null,null
active,1,null,null,null,bin,null,['null'],node1562,11,47,2,null,null
active,1,null,null,null,bin,null,['null'],node1563,12,47,2,null,null
active,1,null,null,null,bin,null,['null'],node1564,13,47,2,null,null
active,1,null,null,null,bin,null,['null'],node1565,14,47,2,null,null
active,1,null,null,null,bin,null,['null'],node1566,15,47,2,null,null
active,1,null,null,null,bin,null,['null'],node1567,16,47,2,null,null
active,1,null,null,null,path,null,['null'],node1568,17,47,2,null,null
active,1,null,null,null,bin,null,['null'],node1569,18,47,2,null,null
active,1,null,null,null,bin,null,['null'],node1570,19,47,2,null,null
active,1,null,null,null,bin,null,['null'],node1571,20,47,2,null,null
active,1,null,null,null,bin,null,['null'],node1572,21,47,2,null,null
active,1,null,null,null,bin,null,['null'],node1573,22,47,2,null,null
active,1,null,null,null,bin,null,['null'],node1574,23,47,2,null,null
active,1,null,null,null,bin,null,['null'],node1575,24,47,2,null,null
active,1,null,null,null,bin,null,['null'],node1576,25,47,2,null,null
active,1,null,null,null,bin,null,['null'],node1577,26,47,2,null,null
active,1,null,null,null,bin,null,['null'],node1578,27,47,2,null,null
active,1,null,null,null,bin,null,['null'],node1579,28,47,2,null,null
active,1,null,null,null,bin,null,['null'],node1580,29,47,2,null,null
active,1,null,null,null,bin,null,['null'],node1581,30,47,2,null,null
active,1,null,null,null,bin,null,['null'],node1582,31,47,2,null,null
active,1,null,null,null,path,null,['null'],node1583,32,47,2,null,null
active,1,null,null,null,path,null,['null'],node1584,0,48,2,null,null
active,1,null,null,null,bin,null,['null'],node1585,1,48,2,null,null
active,1,null,null,null,bin,null,['null'],node1586,2,48,2,null,null
active,1,null,null,null,bin,null,['null'],node1587,3,48,2,null,null
active,1,null,null,null,bin,null,['null'],node1588,4,48,2,null,null
active,1,null,null,null,bin,null,['null'],node1589,5,48,2,null,null
active,1,null,null,null,bin,null,['null'],node1590,6,48,2,null,null
active,1,null,null,null,bin,null,['null'],node1591,7,48,2,null,null
active,1,null,null,null,bin,null,['null'],node1592,8,48,2,null,null
active,1,null,null,null,bin,null,['null'],node1593,9,48,2,null,null
active,1,null,null,null,bin,null,['null'],node1594,10,48,2,null,null
active,1,null,null,null,bin,null,['null'],node1595,11,48,2,null,null
active,1,null,null,null,bin,null,['null'],node1596,12,48,2,null,null
active,1,null,null,null,bin,null,['null'],node1597,13,48,2,null,null
active,1,null,null,null,bin,null,['null'],node1598,14,48,2,null,null
active,1,null,null,null,bin,null,['null'],node1599,15,48,2,null,null
active,1,null,null,null,bin,null,['null'],node1600,16,48,2,null,null
active,1,null,null,null,path,null,['null'],node1601,17,48,2,null,null
active,1,null,null,null,bin,null,['null'],node1602,18,48,2,null,null
active,1,null,null,null,bin,null,['null'],node1603,19,48,2,null,null
active,1,null,null,null,bin,null,['null'],node1604,20,48,2,null,null
active,1,null,null,null,bin,null,['null'],node1605,21,48,2,null,null
active,1,null,null,null,bin,null,['null'],node1606,22,48,2,null,null
active,1,null,null,null,bin,null,['null'],node1607,23,48,2,null,null
active,1,null,null,null,bin,null,['null'],node1608,24,48,2,null,null
active,1,null,null,null,bin,null,['null'],node1609,25,48,2,null,null
active,1,null,null,null,bin,null,['null'],node1610,26,48,2,null,null
active,1,null,null,null,bin,null,['null'],node1611,27,48,2,null,null
active,1,null,null,null,bin,null,['null'],node1612,28,48,2,null,null
active,1,null,null,null,bin,null,['null'],node1613,29,48,2,null,null
active,1,null,null,null,bin,null,['null'],node1614,30,48,2,null,null
active,1,null,null,null,bin,null,['null'],node1615,31,48,2,null,null
active,1,null,null,null,path,null,['null'],node1616,32,48,2,null,null
active,1,null,null,null,path,null,['null'],node1617,0,49,2,null,null
active,1,null,null,null,path,null,['null'],node1618,1,49,2,null,null
active,1,null,null,null,path,null,['null'],node1619,2,49,2,null,null
active,1,null,null,null,path,null,['null'],node1620,3,49,2,null,null
active,1,null,null,null,path,null,['null'],node1621,4,49,2,null,null
active,1,null,null,null,path,null,['null'],node1622,5,49,2,null,null
active,1,null,null,null,path,null,['null'],node1623,6,49,2,null,null
active,1,null,null,null,path,null,['null'],node1624,7,49,2,null,null
active,1,null,null,null,path,null,['null'],node1625,8,49,2,null,null
active,1,null,null,null,path,null,['null'],node1626,9,49,2,null,null
active,1,null,null,null,path,null,['null'],node1627,10,49,2,null,null
active,1,null,null,null,path,null,['null'],node1628,11,49,2,null,null
active,1,null,null,null,path,null,['null'],node1629,12,49,2,null,null
active,1,null,null,null,path,null,['null'],node1630,13,49,2,null,null
active,1,null,null,null,path,null,['null'],node1631,14,49,2,null,null
active,1,null,null,null,path,null,['null'],node1632,15,49,2,null,null
active,1,null,null,null,path,null,['null'],node1633,16,49,2,null,null
active,1,null,null,null,path,null,['null'],node1634,17,49,2,null,null
active,1,null,null,null,path,null,['null'],node1635,18,49,2,null,null
active,1,null,null,null,path,null,['null'],node1636,19,49,2,null,null
active,1,null,null,null,path,null,['null'],node1637,20,49,2,null,null
active,1,null,null,null,path,null,['null'],node1638,21,49,2,null,null
active,1,null,null,null,path,null,['null'],node1639,22,49,2,null,null
active,1,null,null,null,path,null,['null'],node1640,23,49,2,null,null
active,1,null,null,null,path,null,['null'],node1641,24,49,2,null,null
active,1,null,null,null,path,null,['null'],node1642,25,49,2,null,null
active,1,null,null,null,path,null,['null'],node1643,26,49,2,null,null
active,1,null,null,null,path,null,['null'],node1644,27,49,2,null,null
active,1,null,null,null,path,null,['null'],node1645,28,49,2,null,null
active,1,null,null,null,path,null,['null'],node1646,29,49,2,null,null
active,1,null,null,null,path,null,['null'],node1647,30,49,2,null,null
active,1,null,null,null,path,null,['null'],node1648,31,49,2,null,null
active,1,null,null,null,path,null,['null'],node1649,32,49,2,null,null
active,1,null,null,null,path,null,['null'],node1650,0,50,2,null,null
active,1,null,null,null,bin,null,['null'],node1651,1,50,2,null,null
active,1,null,null,null,bin,null,['null'],node1652,2,50,2,null,null
active,1,null,null,null,bin,null,['null'],node1653,3,50,2,null,null
active,1,null,null,null,bin,null,['null'],node1654,4,50,2,null,null
active,1,null,null,null,bin,null,['null'],node1655,5,50,2,null,null
active,1,null,null,null,bin,null,['null'],node1656,6,50,2,null,null
active,1,null,null,null,bin,null,['null'],node1657,7,50,2,null,null
active,1,null,null,null,bin,null,['null'],node1658,8,50,2,null,null
active,1,null,null,null,bin,null,['null'],node1659,9,50,2,null,null
active,1,null,null,null,bin,null,['null'],node1660,10,50,2,null,null
active,1,null,null,null,bin,null,['null'],node1661,11,50,2,null,null
active,1,null,null,null,bin,null,['null'],node1662,12,50,2,null,null
active,1,null,null,null,bin,null,['null'],node1663,13,50,2,null,null
active,1,null,null,null,bin,null,['null'],node1664,14,50,2,null,null
active,1,null,null,null,bin,null,['null'],node1665,15,50,2,null,null
active,1,null,null,null,bin,null,['null'],node1666,16,50,2,null,null
active,1,null,null,null,path,null,['null'],node1667,17,50,2,null,null
active,1,null,null,null,bin,null,['null'],node1668,18,50,2,null,null
active,1,null,null,null,bin,null,['null'],node1669,19,50,2,null,null
active,1,null,null,null,bin,null,['null'],node1670,20,50,2,null,null
active,1,null,null,null,bin,null,['null'],node1671,21,50,2,null,null
active,1,null,null,null,bin,null,['null'],node1672,22,50,2,null,null
active,1,null,null,null,bin,null,['null'],node1673,23,50,2,null,null
active,1,null,null,null,bin,null,['null'],node1674,24,50,2,null,null
active,1,null,null,null,bin,null,['null'],node1675,25,50,2,null,null
active,1,null,null,null,bin,null,['null'],node1676,26,50,2,null,null
active,1,null,null,null,bin,null,['null'],node1677,27,50,2,null,null
active,1,null,null,null,bin,null,['null'],node1678,28,50,2,null,null
active,1,null,null,null,bin,null,['null'],node1679,29,50,2,null,null
active,1,null,null,null,bin,null,['null'],node1680,30,50,2,null,null
active,1,null,null,null,bin,null,['null'],node1681,31,50,2,null,null
active,1,null,null,null,path,null,['null'],node1682,32,50,2,null,null
active,1,null,null,null,path,null,['null'],node1683,0,51,2,null,null
active,1,null,null,null,bin,null,['null'],node1684,1,51,2,null,null
active,1,null,null,null,bin,null,['null'],node1685,2,51,2,null,null
active,1,null,null,null,bin,null,['null'],node1686,3,51,2,null,null
active,1,null,null,null,bin,null,['null'],node1687,4,51,2,null,null
active,1,null,null,null,bin,null,['null'],node1688,5,51,2,null,null
active,1,null,null,null,bin,null,['null'],node1689,6,51,2,null,null
active,1,null,null,null,bin,null,['null'],node1690,7,51,2,null,null
active,1,null,null,null,bin,null,['null'],node1691,8,51,2,null,null
active,1,null,null,null,bin,null,['null'],node1692,9,51,2,null,null
active,1,null,null,null,bin,null,['null'],node1693,10,51,2,null,null
active,1,null,null,null,bin,null,['null'],node1694,11,51,2,null,null
active,1,null,null,null,bin,null,['null'],node1695,12,51,2,null,null
active,1,null,null,null,bin,null,['null'],node1696,13,51,2,null,null
active,1,null,null,null,bin,null,['null'],node1697,14,51,2,null,null
active,1,null,null,null,bin,null,['null'],node1698,15,51,2,null,null
active,1,null,null,null,bin,null,['null'],node1699,16,51,2,null,null
active,1,null,null,null,path,null,['null'],node1700,17,51,2,null,null
active,1,null,null,null,bin,null,['null'],node1701,18,51,2,null,null
active,1,null,null,null,bin,null,['null'],node1702,19,51,2,null,null
active,1,null,null,null,bin,null,['null'],node1703,20,51,2,null,null
active,1,null,null,null,bin,null,['null'],node1704,21,51,2,null,null
active,1,null,null,null,bin,null,['null'],node1705,22,51,2,null,null
active,1,null,null,null,bin,null,['null'],node1706,23,51,2,null,null
active,1,null,null,null,bin,null,['null'],node1707,24,51,2,null,null
active,1,null,null,null,bin,null,['null'],node1708,25,51,2,null,null
active,1,null,null,null,bin,null,['null'],node1709,26,51,2,null,null
active,1,null,null,null,bin,null,['null'],node1710,27,51,2,null,null
active,1,null,null,null,bin,null,['null'],node1711,28,51,2,null,null
active,1,null,null,null,bin,null,['null'],node1712,29,51,2,null,null
active,1,null,null,null,bin,null,['null'],node1713,30,51,2,null,null
active,1,null,null,null,bin,null,['null'],node1714,31,51,2,null,null
active,1,null,null,null,path,null,['null'],node1715,32,51,2,null,null
active,1,null,null,null,path,null,['null'],node1716,0,52,2,null,null
active,1,null,null,null,path,null,['null'],node1717,1,52,2,null,null
active,1,null,null,null,path,null,['null'],node1718,2,52,2,null,null
active,1,null,null,null,path,null,['null'],node1719,3,52,2,null,null
active,1,null,null,null,path,null,['null'],node1720,4,52,2,null,null
active,1,null,null,null,path,null,['null'],node1721,5,52,2,null,null
active,1,null,null,null,path,null,['null'],node1722,6,52,2,null,null
active,1,null,null,null,path,null,['null'],node1723,7,52,2,null,null
active,1,null,null,null,path,null,['null'],node1724,8,52,2,null,null
active,1,null,null,null,path,null,['null'],node1725,9,52,2,null,null
active,1,null,null,null,path,null,['null'],node1726,10,52,2,null,null
active,1,null,null,null,path,null,['null'],node1727,11,52,2,null,null
active,1,null,null,null,path,null,['null'],node1728,12,52,2,null,null
active,1,null,null,null,path,null,['null'],node1729,13,52,2,null,null
active,1,null,null,null,path,null,['null'],node1730,14,52,2,null,null
active,1,null,null,null,path,null,['null'],node1731,15,52,2,null,null
active,1,null,null,null,path,null,['null'],node1732,16,52,2,null,null
active,1,null,null,null,path,null,['null'],node1733,17,52,2,null,null
active,1,null,null,null,path,null,['null'],node1734,18,52,2,null,null
active,1,null,null,null,path,null,['null'],node1735,19,52,2,null,null
active,1,null,null,null,path,null,['null'],node1736,20,52,2,null,null
active,1,null,null,null,path,null,['null'],node1737,21,52,2,null,null
active,1,null,null,null,path,null,['null'],node1738,22,52,2,null,null
active,1,null,null,null,path,null,['null'],node1739,23,52,2,null,null
active,1,null,null,null,path,null,['null'],node1740,24,52,2,null,null
active,1,null,null,null,path,null,['null'],node1741,25,52,2,null,null
active,1,null,null,null,path,null,['null'],node1742,26,52,2,null,null
active,1,null,null,null,path,null,['null'],node1743,27,52,2,null,null
active,1,null,null,null,path,null,['null'],node1744,28,52,2,null,null
active,1,null,null,null,path,null,['null'],node1745,29,52,2,null,null
active,1,null,null,null,path,null,['null'],node1746,30,52,2,null,null
active,1,null,null,null,path,null,['null'],node1747,31,52,2,null,null
active,1,null,null,null,path,null,['null'],node1748,32,52,2,null,null
active,1,null,null,null,path,null,['null'],node1749,0,53,2,null,null
active,1,null,null,null,bin,null,['null'],node1750,1,53,2,null,null
active,1,null,null,null,bin,null,['null'],node1751,2,53,2,null,null
active,1,null,null,null,bin,null,['null'],node1752,3,53,2,null,null
active,1,null,null,null,bin,null,['null'],node1753,4,53,2,null,null
active,1,null,null,null,bin,null,['null'],node1754,5,53,2,null,null
active,1,null,null,null,bin,null,['null'],node1755,6,53,2,null,null
active,1,null,null,null,bin,null,['null'],node1756,7,53,2,null,null
active,1,null,null,null,bin,null,['null'],node1757,8,53,2,null,null
active,1,null,null,null,bin,null,['null'],node1758,9,53,2,null,null
active,1,null,null,null,bin,null,['null'],node1759,10,53,2,null,null
active,1,null,null,null,bin,null,['null'],node1760,11,53,2,null,null
active,1,null,null,null,bin,null,['null'],node1761,12,53,2,null,null
active,1,null,null,null,bin,null,['null'],node1762,13,53,2,null,null
active,1,null,null,null,bin,null,['null'],node1763,14,53,2,null,null
active,1,null,null,null,bin,null,['null'],node1764,15,53,2,null,null
active,1,null,null,null,bin,null,['null'],node1765,16,53,2,null,null
active,1,null,null,null,path,null,['null'],node1766,17,53,2,null,null
active,1,null,null,null,bin,null,['null'],node1767,18,53,2,null,null
active,1,null,null,null,bin,null,['null'],node1768,19,53,2,null,null
active,1,null,null,null,bin,null,['null'],node1769,20,53,2,null,null
active,1,null,null,null,bin,null,['null'],node1770,21,53,2,null,null
active,1,null,null,null,bin,null,['null'],node1771,22,53,2,null,null
active,1,null,null,null,bin,null,['null'],node1772,23,53,2,null,null
active,1,null,null,null,bin,null,['null'],node1773,24,53,2,null,null
active,1,null,null,null,bin,null,['null'],node1774,25,53,2,null,null
active,1,null,null,null,bin,null,['null'],node1775,26,53,2,null,null
active,1,null,null,null,bin,null,['null'],node1776,27,53,2,null,null
active,1,null,null,null,bin,null,['null'],node1777,28,53,2,null,null
active,1,null,null,null,bin,null,['null'],node1778,29,53,2,null,null
active,1,null,null,null,bin,null,['null'],node1779,30,53,2,null,null
active,1,null,null,null,bin,null,['null'],node1780,31,53,2,null,null
active,1,null,null,null,path,null,['null'],node1781,32,53,2,null,null
active,1,null,null,null,path,null,['null'],node1782,0,54,2,null,null
active,1,null,null,null,bin,null,['null'],node1783,1,54,2,null,null
active,1,null,null,null,bin,null,['null'],node1784,2,54,2,null,null
active,1,null,null,null,bin,null,['null'],node1785,3,54,2,null,null
active,1,null,null,null,bin,null,['null'],node1786,4,54,2,null,null
active,1,null,null,null,bin,null,['null'],node1787,5,54,2,null,null
active,1,null,null,null,bin,null,['null'],node1788,6,54,2,null,null
active,1,null,null,null,bin,null,['null'],node1789,7,54,2,null,null
active,1,null,null,null,bin,null,['null'],node1790,8,54,2,null,null
active,1,null,null,null,bin,null,['null'],node1791,9,54,2,null,null
active,1,null,null,null,bin,null,['null'],node1792,10,54,2,null,null
active,1,null,null,null,bin,null,['null'],node1793,11,54,2,null,null
active,1,null,null,null,bin,null,['null'],node1794,12,54,2,null,null
active,1,null,null,null,bin,null,['null'],node1795,13,54,2,null,null
active,1,null,null,null,bin,null,['null'],node1796,14,54,2,null,null
active,1,null,null,null,bin,null,['null'],node1797,15,54,2,null,null
active,1,null,null,null,bin,null,['null'],node1798,16,54,2,null,null
active,1,null,null,null,path,null,['null'],node1799,17,54,2,null,null
active,1,null,null,null,bin,null,['null'],node1800,18,54,2,null,null
active,1,null,null,null,bin,null,['null'],node1801,19,54,2,null,null
active,1,null,null,null,bin,null,['null'],node1802,20,54,2,null,null
active,1,null,null,null,bin,null,['null'],node1803,21,54,2,null,null
active,1,null,null,null,bin,null,['null'],node1804,22,54,2,null,null
active,1,null,null,null,bin,null,['null'],node1805,23,54,2,null,null
active,1,null,null,null,bin,null,['null'],node1806,24,54,2,null,null
active,1,null,null,null,bin,null,['null'],node1807,25,54,2,null,null
active,1,null,null,null,bin,null,['null'],node1808,26,54,2,null,null
active,1,null,null,null,bin,null,['null'],node1809,27,54,2,null,null
active,1,null,null,null,bin,null,['null'],node1810,28,54,2,null,null
active,1,null,null,null,bin,null,['null'],node1811,29,54,2,null,null
active,1,null,null,null,bin,null,['null'],node1812,30,54,2,null,null
active,1,null,null,null,bin,null,['null'],node1813,31,54,2,null,null
active,1,null,null,null,path,null,['null'],node1814,32,54,2,null,null
active,1,null,null,null,path,null,['null'],node1815,0,55,2,null,null
active,1,null,null,null,path,null,['null'],node1816,1,55,2,null,null
active,1,null,null,null,path,null,['null'],node1817,2,55,2,null,null
active,1,null,null,null,path,null,['null'],node1818,3,55,2,null,null
active,1,null,null,null,path,null,['null'],node1819,4,55,2,null,null
active,1,null,null,null,path,null,['null'],node1820,5,55,2,null,null
active,1,null,null,null,path,null,['null'],node1821,6,55,2,null,null
active,1,null,null,null,path,null,['null'],node1822,7,55,2,null,null
active,1,null,null,null,path,null,['null'],node1823,8,55,2,null,null
active,1,null,null,null,path,null,['null'],node1824,9,55,2,null,null
active,1,null,null,null,path,null,['null'],node1825,10,55,2,null,null
active,1,null,null,null,path,null,['null'],node1826,11,55,2,null,null
active,1,null,null,null,path,null,['null'],node1827,12,55,2,null,null
active,1,null,null,null,path,null,['null'],node1828,13,55,2,null,null
active,1,null,null,null,path,null,['null'],node1829,14,55,2,null,null
active,1,null,null,null,path,null,['null'],node1830,15,55,2,null,null
active,1,null,null,null,path,null,['null'],node1831,16,55,2,null,null
active,1,null,null,null,path,null,['null'],node1832,17,55,2,null,null
active,1,null,null,null,path,null,['null'],node1833,18,55,2,null,null
active,1,null,null,null,path,null,['null'],node1834,19,55,2,null,null
active,1,null,null,null,path,null,['null'],node1835,20,55,2,null,null
active,1,null,null,null,path,null,['null'],node1836,21,55,2,null,null
active,1,null,null,null,path,null,['null'],node1837,22,55,2,null,null
active,1,null,null,null,path,null,['null'],node1838,23,55,2,null,null
active,1,null,null,null,path,null,['null'],node1839,24,55,2,null,null
active,1,null,null,null,path,null,['null'],node1840,25,55,2,null,null
active,1,null,null,null,path,null,['null'],node1841,26,55,2,null,null
active,1,null,null,null,path,null,['null'],node1842,27,55,2,null,null
active,1,null,null,null,path,null,['null'],node1843,28,55,2,null,null
active,1,null,null,null,path,null,['null'],node1844,29,55,2,null,null
active,1,null,null,null,path,null,['null'],node1845,30,55,2,null,null
active,1,null,null,null,stairs,null,['null'],node1846,31,55,2,null,null
active,1,null,null,null,stairs,null,['null'],node1847,32,55,2,null,null
active,1,null,null,null,path,null,['null'],node1848,0,56,2,null,null
active,1,null,null,null,bin,null,['null'],node1849,1,56,2,null,null
active,1,null,null,null,bin,null,['null'],node1850,2,56,2,null,null
active,1,null,null,null,bin,null,['null'],node1851,3,56,2,null,null
active,1,null,null,null,bin,null,['null'],node1852,4,56,2,null,null
active,1,null,null,null,bin,null,['null'],node1853,5,56,2,null,null
active,1,null,null,null,bin,null,['null'],node1854,6,56,2,null,null
active,1,null,null,null,bin,null,['null'],node1855,7,56,2,null,null
active,1,null,null,null,bin,null,['null'],node1856,8,56,2,null,null
active,1,null,null,null,bin,null,['null'],node1857,9,56,2,null,null
active,1,null,null,null,bin,null,['null'],node1858,10,56,2,null,null
active,1,null,null,null,bin,null,['null'],node1859,11,56,2,null,null
active,1,null,null,null,bin,null,['null'],node1860,12,56,2,null,null
active,1,null,null,null,stairs,null,['null'],node1861,13,56,2,null,null
active,1,null,null,null,stairs,null,['null'],node1862,14,56,2,null,null
active,1,null,null,null,bin,null,['null'],node1863,15,56,2,null,null
active,1,null,null,null,bin,null,['null'],node1864,16,56,2,null,null
active,1,null,null,null,bin,null,['null'],node1865,17,56,2,null,null
active,1,null,null,null,bin,null,['null'],node1866,18,56,2,null,null
active,1,null,null,null,bin,null,['null'],node1867,19,56,2,null,null
active,1,null,null,null,bin,null,['null'],node1868,20,56,2,null,null
active,1,null,null,null,bin,null,['null'],node1869,21,56,2,null,null
active,1,null,null,null,bin,null,['null'],node1870,22,56,2,null,null
active,1,null,null,null,bin,null,['null'],node1871,23,56,2,null,null
active,1,null,null,null,bin,null,['null'],node1872,24,56,2,null,null
active,1,null,null,null,bin,null,['null'],node1873,25,56,2,null,null
active,1,null,null,null,bin,null,['null'],node1874,26,56,2,null,null
active,1,null,null,null,bin,null,['null'],node1875,27,56,2,null,null
active,1,null,null,null,bin,null,['null'],node1876,28,56,2,null,null
active,1,null,null,null,bin,null,['null'],node1877,29,56,2,null,null
active,1,null,null,null,empty,null,['null'],node1878,30,56,2,null,null
active,1,null,null,null,empty,null,['null'],node1879,31,56,2,null,null
active,1,null,null,null,empty,null,['null'],node1880,32,56,2,null,null
